{"type":"FeatureCollection","features":[{"type":"Feature","properties":{"codigo":"RC01","regiao":"Capital SP"},"geometry":{"type":"Polygon","coordinates":[[[-46.6119,-23.9678],[-46.618,-23.8852],[-46.6326,-23.8511],[-46.6228,-23.7862],[-46.6513,-23.731],[-46.6164,-23.7105],[-46.6339,-23.688],[-46.6163,-23.658],[-46.5834,-23.641],[-46.5793,-23.6045],[-46.548,-23.6061],[-46.4855,-23.623],[-46.4723,-23.6388],[-46.4211,-23.6437],[-46.3948,-23.6125],[-46.3776,-23.5878],[-46.3923,-23.5305],[-46.3664,-23.5122],[-46.3867,-23.4747],[-46.4605,-23.483],[-46.5111,-23.4788],[-46.547,-23.5064],[-46.5705,-23.4588],[-46.5666,-23.4154],[-46.5354,-23.3633],[-46.6002,-23.3882],[-46.6343,-23.4293],[-46.6698,-23.4186],[-46.7004,-23.4225],[-46.7355,-23.3881],[-46.823,-23.401],[-46.8233,-23.4224],[-46.8007,-23.4704],[-46.7995,-23.4714],[-46.7748,-23.4644],[-46.76,-23.5292],[-46.7731,-23.5701],[-46.8064,-23.584],[-46.8078,-23.6091],[-46.7927,-23.6472],[-46.8015,-23.6854],[-46.796,-23.7391],[-46.7774,-23.7672],[-46.8011,-23.8098],[-46.7626,-23.8279],[-46.7766,-23.8926],[-46.8107,-23.9205],[-46.8069,-23.9382],[-46.7148,-23.9962],[-46.6833,-23.9824],[-46.6499,-24.0016],[-46.6119,-23.9678]]]}},{"type":"Feature","properties":{"codigo":"RC02","regiao":"Grande São Paulo"},"geometry":{"type":"Polygon","coordinates":[[[-47.2055,-23.9608],[-47.2,-24.0006],[-47.1271,-24.0087],[-47.056,-24.0096],[-47.0272,-24.0516],[-46.9786,-24.0643],[-46.9362,-24.0334],[-46.9003,-24.0461],[-46.8677,-24.0192],[-46.8831,-23.9852],[-46.8069,-23.9382],[-46.8107,-23.9205],[-46.7766,-23.8926],[-46.7626,-23.8279],[-46.8011,-23.8098],[-46.7774,-23.7672],[-46.796,-23.7391],[-46.8015,-23.6854],[-46.7927,-23.6472],[-46.8078,-23.6091],[-46.8064,-23.584],[-46.7731,-23.5701],[-46.76,-23.5292],[-46.7748,-23.4644],[-46.7995,-23.4714],[-46.8007,-23.4704],[-46.8233,-23.4224],[-46.823,-23.401],[-46.7355,-23.3881],[-46.7004,-23.4225],[-46.6698,-23.4186],[-46.6343,-23.4293],[-46.6002,-23.3882],[-46.5354,-23.3633],[-46.5666,-23.4154],[-46.5705,-23.4588],[-46.547,-23.5064],[-46.5111,-23.4788],[-46.4605,-23.483],[-46.3867,-23.4747],[-46.3664,-23.5122],[-46.3923,-23.5305],[-46.3776,-23.5878],[-46.3948,-23.6125],[-46.4211,-23.6437],[-46.4723,-23.6388],[-46.4855,-23.623],[-46.548,-23.6061],[-46.5793,-23.6045],[-46.5834,-23.641],[-46.6163,-23.658],[-46.6339,-23.688],[-46.6164,-23.7105],[-46.6513,-23.731],[-46.6228,-23.7862],[-46.6326,-23.8511],[-46.618,-23.8852],[-46.6119,-23.9678],[-46.5645,-23.9529],[-46.5405,-23.9235],[-46.4962,-23.8996],[-46.4103,-23.8154],[-46.3386,-23.7817],[-46.3203,-23.8031],[-46.2784,-23.7703],[-46.2396,-23.7359],[-46.2024,-23.7513],[-46.1705,-23.7324],[-46.1009,-23.7184],[-46.0822,-23.68],[-46.088,-23.5754],[-46.1121,-23.5408],[-46.077,-23.5147],[-46.0566,-23.5422],[-45.9927,-23.5199],[-45.9651,-23.5536],[-45.9652,-23.5808],[-45.9293,-23.5985],[-45.9394,-23.6323],[-45.9161,-23.6669],[-45.8448,-23.6438],[-45.8329,-23.6698],[-45.7961,-23.683],[-45.7417,-23.6682],[-45.7196,-23.6489],[-45.7025,-23.6369],[-45.7396,-23.5833],[-45.7465,-23.5389],[-45.7888,-23.4929],[-45.8136,-23.4993],[-45.8406,-23.4723],[-45.9041,-23.5053],[-45.9619,-23.4971],[-45.9519,-23.4514],[-45.9874,-23.4198],[-46.0025,-23.3853],[-46.0295,-23.3918],[-46.1015,-23.3086],[-46.1349,-23.2879],[-46.1457,-23.2568],[-46.1621,-23.2346],[-46.2274,-23.1898],[-46.2622,-23.1864],[-46.31,-23.205],[-46.3113,-23.2271],[-46.3642,-23.2741],[-46.4185,-23.3163],[-46.4484,-23.2701],[-46.4698,-23.2828],[-46.5154,-23.2375],[-46.5454,-23.2414],[-46.6151,-23.2273],[-46.6371,-23.2581],[-46.6384,-23.2577],[-46.7041,-23.2521],[-46.7438,-23.2503],[-46.7837,-23.2654],[-46.8026,-23.2571],[-46.8381,-23.2878],[-46.8675,-23.2779],[-46.9019,-23.3076],[-46.9379,-23.3219],[-46.9385,-23.3479],[-46.9023,-23.3664],[-46.9288,-23.3875],[-46.9709,-23.4255],[-47.0375,-23.4356],[-46.995,-23.507],[-46.9916,-23.5294],[-47.0281,-23.5813],[-47.059,-23.6283],[-47.0815,-23.6532],[-47.0761,-23.6807],[-47.0193,-23.7885],[-46.9889,-23.8008],[-47.0174,-23.8176],[-47.0288,-23.8462],[-47.0836,-23.8447],[-47.1291,-23.8606],[-47.1424,-23.9113],[-47.1843,-23.9299],[-47.2055,-23.9608]]]}},{"type":"Feature","properties":{"codigo":"RC03","regiao":"Baixada Santista"},"geometry":{"type":"Polygon","coordinates":[[[-47.1208,-24.3648],[-47.1177,-24.4176],[-47.0779,-24.4482],[-47.0036,-24.409],[-47.0182,-24.3788],[-46.9939,-24.3254],[-46.8976,-24.2529],[-46.8446,-24.2184],[-46.7094,-24.1441],[-46.6044,-24.0897],[-46.493,-24.0385],[-46.4156,-24.0157],[-46.3919,-23.9986],[-46.3551,-23.9711],[-46.3063,-23.9931],[-46.3201,-24.0243],[-46.2397,-23.9908],[-46.1978,-23.9948],[-46.1656,-23.9442],[-46.1332,-23.8565],[-46.0887,-23.8221],[-46.0388,-23.8155],[-45.9726,-23.7854],[-45.8983,-23.7654],[-45.8424,-23.7582],[-45.7948,-23.7156],[-45.7961,-23.683],[-45.8329,-23.6698],[-45.8448,-23.6438],[-45.9161,-23.6669],[-45.9361,-23.7012],[-45.9765,-23.694],[-46.0774,-23.7326],[-46.1009,-23.7184],[-46.1705,-23.7324],[-46.2024,-23.7513],[-46.2396,-23.7359],[-46.2784,-23.7703],[-46.3203,-23.8031],[-46.3386,-23.7817],[-46.4103,-23.8154],[-46.4962,-23.8996],[-46.5405,-23.9235],[-46.5645,-23.9529],[-46.6119,-23.9678],[-46.6499,-24.0016],[-46.6833,-23.9824],[-46.7148,-23.9962],[-46.8069,-23.9382],[-46.8831,-23.9852],[-46.8677,-24.0192],[-46.9003,-24.0461],[-46.9362,-24.0334],[-46.9786,-24.0643],[-46.9684,-24.1077],[-46.9832,-24.1233],[-47.0311,-24.1483],[-47.0674,-24.2015],[-47.0305,-24.2234],[-47.057,-24.2643],[-47.0211,-24.2835],[-47.045,-24.3344],[-47.1208,-24.3648]]]}},{"type":"Feature","properties":{"codigo":"RC04","regiao":"Interior de São Paulo"},"geometry":{"type":"MultiPolygon","coordinates":[[[[-53.1079,-22.5955],[-53.1052,-22.6219],[-53.0915,-22.6448],[-53.0385,-22.6184],[-53.0117,-22.5988],[-52.9724,-22.5705],[-52.9247,-22.5656],[-52.8584,-22.608],[-52.8154,-22.597],[-52.7829,-22.6021],[-52.7643,-22.6086],[-52.6971,-22.627],[-52.5893,-22.5661],[-52.5378,-22.616],[-52.4988,-22.6342],[-52.4457,-22.6083],[-52.4214,-22.6106],[-52.3805,-22.6265],[-52.3004,-22.6354],[-52.29,-22.6282],[-52.2504,-22.6154],[-52.2281,-22.6425],[-52.2226,-22.6755],[-52.1828,-22.6554],[-52.1567,-22.6447],[-52.1523,-22.5692],[-52.1356,-22.5269],[-52.1092,-22.5163],[-52.0329,-22.5392],[-52.0284,-22.5395],[-51.9405,-22.5673],[-51.9015,-22.6019],[-51.8902,-22.6132],[-51.8558,-22.6317],[-51.7716,-22.6141],[-51.733,-22.6286],[-51.7182,-22.669],[-51.6305,-22.6579],[-51.6279,-22.6582],[-51.5596,-22.6972],[-51.5172,-22.69],[-51.475,-22.6792],[-51.4464,-22.653],[-51.402,-22.6679],[-51.3736,-22.6581],[-51.3331,-22.6671],[-51.2982,-22.6735],[-51.2652,-22.6677],[-51.2137,-22.7237],[-51.176,-22.7388],[-51.1279,-22.76],[-51.0576,-22.7661],[-51.0044,-22.7937],[-50.9787,-22.7826],[-50.9277,-22.7977],[-50.8953,-22.7943],[-50.8424,-22.8314],[-50.8236,-22.8661],[-50.7931,-22.9051],[-50.7959,-22.9512],[-50.7098,-22.9534],[-50.6821,-22.9062],[-50.6373,-22.9069],[-50.6038,-22.9232],[-50.5772,-22.904],[-50.53,-22.9191],[-50.5268,-22.9348],[-50.4257,-22.9442],[-50.4164,-22.9128],[-50.3592,-22.9161],[-50.3402,-22.9481],[-50.2756,-22.9316],[-50.2432,-22.951],[-50.2039,-22.9528],[-50.1331,-22.9399],[-50.0528,-22.9055],[-50.0146,-22.9113],[-49.9862,-22.8975],[-49.9614,-22.9309],[-49.9742,-22.9545],[-49.9725,-22.9585],[-49.9545,-22.9784],[-49.9017,-22.9993],[-49.9116,-23.0511],[-49.8674,-23.0717],[-49.8337,-23.0659],[-49.8194,-23.077],[-49.8095,-23.0892],[-49.7892,-23.1033],[-49.7256,-23.1094],[-49.7165,-23.1484],[-49.6777,-23.1749],[-49.6538,-23.212],[-49.6271,-23.2818],[-49.6217,-23.3319],[-49.6379,-23.3495],[-49.5954,-23.3671],[-49.6025,-23.4085],[-49.5818,-23.429],[-49.5981,-23.4582],[-49.6214,-23.4933],[-49.6242,-23.5233],[-49.6002,-23.5356],[-49.6028,-23.584],[-49.621,-23.6111],[-49.6021,-23.6521],[-49.5747,-23.676],[-49.5492,-23.704],[-49.5673,-23.7368],[-49.5597,-23.7936],[-49.5727,-23.827],[-49.608,-23.8394],[-49.587,-23.8889],[-49.5358,-23.9282],[-49.5223,-23.9166],[-49.4923,-23.9934],[-49.4575,-24.0495],[-49.4298,-24.0687],[-49.4087,-24.1069],[-49.3366,-24.1376],[-49.3507,-24.2208],[-49.3054,-24.2514],[-49.2869,-24.3026],[-49.2542,-24.3179],[-49.2011,-24.3451],[-49.2535,-24.405],[-49.2524,-24.4339],[-49.2505,-24.4454],[-49.2453,-24.4651],[-49.2957,-24.5003],[-49.2799,-24.5359],[-49.316,-24.5555],[-49.3036,-24.5969],[-49.312,-24.6635],[-49.2781,-24.693],[-49.2079,-24.7009],[-49.1857,-24.6728],[-49.1579,-24.6719],[-49.1298,-24.6819],[-49.1116,-24.6884],[-49.0103,-24.6544],[-48.9622,-24.6742],[-48.9123,-24.674],[-48.8404,-24.665],[-48.8108,-24.675],[-48.7771,-24.6957],[-48.7038,-24.6804],[-48.675,-24.7018],[-48.6166,-24.6687],[-48.5722,-24.6906],[-48.5381,-24.7262],[-48.5019,-24.746],[-48.5183,-24.781],[-48.5558,-24.8062],[-48.5677,-24.8488],[-48.5497,-24.8675],[-48.5664,-24.9168],[-48.5674,-24.9723],[-48.5981,-25.0033],[-48.5796,-25.0531],[-48.5563,-25.0843],[-48.5302,-25.1008],[-48.4809,-25.037],[-48.474,-25.0126],[-48.4119,-24.9804],[-48.3799,-24.9959],[-48.3512,-25.0365],[-48.2846,-25.0392],[-48.2696,-24.9975],[-48.2397,-24.9914],[-48.2086,-25.0319],[-48.2161,-25.0767],[-48.1816,-25.1338],[-48.1585,-25.1499],[-48.1825,-25.205],[-48.113,-25.2509],[-48.0235,-25.2309],[-48.0968,-25.2972],[-48.0961,-25.3089],[-48.0469,-25.2585],[-47.9238,-25.1605],[-47.908,-25.1181],[-47.9095,-25.0529],[-47.8429,-24.9766],[-47.7315,-24.8806],[-47.623,-24.7991],[-47.561,-24.7579],[-47.4248,-24.6851],[-47.4153,-24.6756],[-47.245,-24.574],[-47.1447,-24.4923],[-47.0779,-24.4482],[-47.1177,-24.4176],[-47.1208,-24.3648],[-47.045,-24.3344],[-47.0211,-24.2835],[-47.057,-24.2643],[-47.0305,-24.2234],[-47.0674,-24.2015],[-47.0311,-24.1483],[-46.9832,-24.1233],[-46.9684,-24.1077],[-46.9786,-24.0643],[-47.0272,-24.0516],[-47.056,-24.0096],[-47.1271,-24.0087],[-47.2,-24.0006],[-47.2055,-23.9608],[-47.1843,-23.9299],[-47.1424,-23.9113],[-47.1291,-23.8606],[-47.0836,-23.8447],[-47.0288,-23.8462],[-47.0174,-23.8176],[-46.9889,-23.8008],[-47.0193,-23.7885],[-47.0761,-23.6807],[-47.0815,-23.6532],[-47.059,-23.6283],[-47.0281,-23.5813],[-46.9916,-23.5294],[-46.995,-23.507],[-47.0375,-23.4356],[-46.9709,-23.4255],[-46.9288,-23.3875],[-46.9023,-23.3664],[-46.9385,-23.3479],[-46.9379,-23.3219],[-46.9019,-23.3076],[-46.8675,-23.2779],[-46.8381,-23.2878],[-46.8026,-23.2571],[-46.7837,-23.2654],[-46.7438,-23.2503],[-46.7041,-23.2521],[-46.6384,-23.2577],[-46.6371,-23.2581],[-46.6151,-23.2273],[-46.5454,-23.2414],[-46.5154,-23.2375],[-46.4698,-23.2828],[-46.4484,-23.2701],[-46.4185,-23.3163],[-46.3642,-23.2741],[-46.3113,-23.2271],[-46.31,-23.205],[-46.2622,-23.1864],[-46.2274,-23.1898],[-46.1621,-23.2346],[-46.1457,-23.2568],[-46.1349,-23.2879],[-46.1015,-23.3086],[-46.0295,-23.3918],[-46.0025,-23.3853],[-45.9874,-23.4198],[-45.9519,-23.4514],[-45.9619,-23.4971],[-45.9041,-23.5053],[-45.8406,-23.4723],[-45.8136,-23.4993],[-45.7888,-23.4929],[-45.7465,-23.5389],[-45.7396,-23.5833],[-45.7025,-23.6369],[-45.7196,-23.6489],[-45.7417,-23.6682],[-45.7961,-23.683],[-45.7948,-23.7156],[-45.8424,-23.7582],[-45.7925,-23.7693],[-45.7633,-23.763],[-45.6641,-23.779],[-45.624,-23.7958],[-45.5551,-23.795],[-45.5024,-23.8412],[-45.4651,-23.8192],[-45.4309,-23.8325],[-45.3963,-23.8081],[-45.3969,-23.7806],[-45.427,-23.7084],[-45.4283,-23.6579],[-45.4066,-23.6239],[-45.3569,-23.6227],[-45.3114,-23.5757],[-45.2767,-23.5783],[-45.2442,-23.5937],[-45.2125,-23.5662],[-45.2194,-23.5289],[-45.1592,-23.5385],[-45.1739,-23.4963],[-45.0715,-23.4972],[-45.0539,-23.4167],[-45.015,-23.4187],[-44.9771,-23.4003],[-44.9416,-23.357],[-44.9057,-23.334],[-44.8369,-23.3696],[-44.8402,-23.3882],[-44.7506,-23.366],[-44.7242,-23.3676],[-44.7777,-23.3377],[-44.7874,-23.2991],[-44.8247,-23.2916],[-44.828,-23.2706],[-44.8893,-23.2266],[-44.8826,-23.2027],[-44.8747,-23.1847],[-44.8244,-23.1627],[-44.8106,-23.1148],[-44.8188,-23.0915],[-44.8022,-23.0488],[-44.7919,-22.9819],[-44.7648,-22.9833],[-44.7435,-22.947],[-44.6387,-22.9142],[-44.6295,-22.9049],[-44.6071,-22.8853],[-44.5552,-22.8881],[-44.4946,-22.8468],[-44.4669,-22.885],[-44.4231,-22.8505],[-44.3812,-22.8584],[-44.3181,-22.8451],[-44.2676,-22.829],[-44.2402,-22.7914],[-44.2576,-22.767],[-44.227,-22.7337],[-44.1739,-22.7021],[-44.1656,-22.6734],[-44.1843,-22.6373],[-44.2456,-22.6064],[-44.3421,-22.5893],[-44.3609,-22.6118],[-44.3824,-22.5735],[-44.4058,-22.5991],[-44.4662,-22.6157],[-44.5107,-22.6401],[-44.546,-22.607],[-44.6459,-22.6039],[-44.6444,-22.5556],[-44.6679,-22.5541],[-44.6882,-22.5215],[-44.7192,-22.4634],[-44.7553,-22.4153],[-44.8094,-22.4056],[-44.8439,-22.4278],[-44.8897,-22.4321],[-44.9396,-22.4526],[-44.9659,-22.4752],[-44.9907,-22.4665],[-45.0549,-22.4705],[-45.1028,-22.4899],[-45.1244,-22.4972],[-45.1668,-22.5307],[-45.1772,-22.5467],[-45.2545,-22.5816],[-45.2691,-22.6114],[-45.333,-22.6176],[-45.4,-22.6537],[-45.4204,-22.6212],[-45.4804,-22.5905],[-45.4888,-22.6288],[-45.5249,-22.6469],[-45.5804,-22.6529],[-45.5599,-22.6276],[-45.5765,-22.6017],[-45.6181,-22.6379],[-45.6662,-22.6512],[-45.6811,-22.6363],[-45.6599,-22.599],[-45.6787,-22.5733],[-45.7268,-22.587],[-45.73,-22.6187],[-45.698,-22.6498],[-45.7428,-22.6592],[-45.7879,-22.6934],[-45.8116,-22.6987],[-45.8051,-22.7373],[-45.7326,-22.722],[-45.7122,-22.7698],[-45.7709,-22.8059],[-45.768,-22.836],[-45.8481,-22.8378],[-45.871,-22.8715],[-45.909,-22.8296],[-45.9565,-22.8498],[-46.0085,-22.8895],[-46.0507,-22.897],[-46.0952,-22.8944],[-46.1391,-22.9228],[-46.1413,-22.8681],[-46.1922,-22.8652],[-46.2574,-22.8909],[-46.279,-22.8783],[-46.3449,-22.9052],[-46.3763,-22.8771],[-46.3745,-22.8202],[-46.3617,-22.7889],[-46.3326,-22.7661],[-46.3728,-22.7468],[-46.4527,-22.7276],[-46.4731,-22.705],[-46.4691,-22.6732],[-46.3931,-22.663],[-46.4243,-22.5994],[-46.4146,-22.5579],[-46.4565,-22.5217],[-46.5421,-22.4944],[-46.5499,-22.4695],[-46.5548,-22.4466],[-46.6163,-22.4386],[-46.6665,-22.4151],[-46.6609,-22.366],[-46.7233,-22.3066],[-46.7069,-22.2579],[-46.6803,-22.2165],[-46.6718,-22.1783],[-46.6456,-22.1806],[-46.613,-22.1503],[-46.6242,-22.1085],[-46.6468,-22.0919],[-46.7001,-22.0951],[-46.7195,-22.0833],[-46.6648,-22.0689],[-46.6854,-22.0374],[-46.6499,-22.0095],[-46.6179,-21.995],[-46.6428,-21.9766],[-46.6738,-21.9111],[-46.6475,-21.8805],[-46.666,-21.8484],[-46.6907,-21.8376],[-46.6307,-21.7686],[-46.6145,-21.6765],[-46.5646,-21.6787],[-46.5547,-21.6534],[-46.5118,-21.5654],[-46.523,-21.5299],[-46.5089,-21.4891],[-46.5191,-21.449],[-46.5765,-21.427],[-46.6161,-21.4303],[-46.6476,-21.3796],[-46.6755,-21.3751],[-46.739,-21.3926],[-46.7647,-21.3601],[-46.7815,-21.3707],[-46.8361,-21.3707],[-46.8421,-21.3891],[-46.8846,-21.4072],[-46.9329,-21.425],[-47.013,-21.4191],[-46.9967,-21.3573],[-47.0165,-21.3424],[-47.0442,-21.2674],[-47.0761,-21.2412],[-47.1185,-21.1859],[-47.1176,-21.1532],[-47.133,-21.1332],[-47.1148,-21.1047],[-47.1413,-21.0859],[-47.1479,-21.0355],[-47.1437,-20.9824],[-47.1813,-20.9538],[-47.24,-20.8853],[-47.2274,-20.8565],[-47.2269,-20.8555],[-47.2145,-20.8272],[-47.2249,-20.8009],[-47.1888,-20.7706],[-47.1862,-20.7314],[-47.1692,-20.7034],[-47.1267,-20.7093],[-47.101,-20.682],[-47.0975,-20.6439],[-47.1233,-20.6127],[-47.1428,-20.5656],[-47.1377,-20.5611],[-47.1442,-20.5408],[-47.1545,-20.5196],[-47.2235,-20.4911],[-47.291,-20.4505],[-47.2935,-20.4187],[-47.2855,-20.4057],[-47.2982,-20.3484],[-47.2767,-20.2916],[-47.2326,-20.2275],[-47.2311,-20.2192],[-47.2618,-20.1599],[-47.2964,-20.1459],[-47.3292,-20.1153],[-47.3716,-20.0859],[-47.4081,-20.0802],[-47.4403,-20.0488],[-47.4244,-20.0153],[-47.4633,-19.9658],[-47.4896,-19.9693],[-47.5492,-19.9938],[-47.5838,-19.9967],[-47.5947,-20.0259],[-47.6397,-20.0472],[-47.6761,-20.0019],[-47.7127,-19.9781],[-47.7626,-19.986],[-47.8509,-19.9898],[-47.8752,-20.0186],[-47.8615,-20.045],[-47.8698,-20.0762],[-47.8994,-20.1257],[-47.9315,-20.1104],[-47.946,-20.0605],[-47.9812,-20.0364],[-48.0011,-20.1013],[-48.0202,-20.124],[-48.0768,-20.1484],[-48.1055,-20.1464],[-48.1786,-20.0962],[-48.2034,-20.0455],[-48.2285,-20.0282],[-48.2534,-20.0779],[-48.2186,-20.1279],[-48.2651,-20.1438],[-48.3154,-20.1138],[-48.3749,-20.1231],[-48.4058,-20.1135],[-48.4516,-20.1259],[-48.4911,-20.1381],[-48.5374,-20.1336],[-48.5932,-20.1358],[-48.6469,-20.167],[-48.7296,-20.1503],[-48.7811,-20.1639],[-48.8221,-20.1615],[-48.8554,-20.1801],[-48.8534,-20.215],[-48.8871,-20.2753],[-48.8755,-20.3184],[-48.8784,-20.3561],[-48.8671,-20.3989],[-48.8865,-20.4369],[-48.9042,-20.4387],[-48.963,-20.4031],[-48.9658,-20.2793],[-48.972,-20.2078],[-48.986,-20.1708],[-49.0329,-20.1501],[-49.0659,-20.1535],[-49.1207,-20.2705],[-49.1836,-20.3147],[-49.2253,-20.3053],[-49.2597,-20.2588],[-49.2652,-20.2297],[-49.2992,-20.1671],[-49.3059,-20.1169],[-49.3073,-20.0603],[-49.2973,-20.0175],[-49.2483,-19.9996],[-49.2501,-19.9693],[-49.2975,-19.9605],[-49.3565,-19.9867],[-49.4538,-19.9781],[-49.4928,-19.9504],[-49.514,-19.9143],[-49.5515,-19.9058],[-49.6132,-19.92],[-49.6344,-19.9319],[-49.7494,-19.9247],[-49.8353,-19.9333],[-49.8537,-19.9465],[-49.9062,-19.9372],[-49.9699,-19.92],[-50.0031,-19.9264],[-50.0441,-19.9164],[-50.1062,-19.8743],[-50.1718,-19.8755],[-50.2157,-19.8666],[-50.2452,-19.8768],[-50.3374,-19.8695],[-50.4171,-19.8011],[-50.4541,-19.7862],[-50.4693,-19.7799],[-50.562,-19.8136],[-50.5779,-19.8164],[-50.6142,-19.861],[-50.6581,-19.9071],[-50.6864,-19.9162],[-50.7836,-19.9372],[-50.8441,-19.9676],[-50.886,-19.9904],[-50.9081,-19.9943],[-50.9455,-20.0297],[-50.9691,-20.0364],[-51.0005,-20.0854],[-51.0012,-20.0963],[-51.0216,-20.1333],[-51.0692,-20.25],[-51.1094,-20.2801],[-51.1608,-20.3052],[-51.2957,-20.3285],[-51.3435,-20.3556],[-51.4188,-20.465],[-51.4492,-20.4828],[-51.5002,-20.5682],[-51.5676,-20.6183],[-51.5752,-20.6234],[-51.6033,-20.6617],[-51.6349,-20.7548],[-51.6224,-20.7769],[-51.633,-20.8216],[-51.6151,-20.8861],[-51.6236,-20.9444],[-51.6667,-20.9708],[-51.7137,-20.9715],[-51.7596,-21.0222],[-51.7725,-21.0511],[-51.7897,-21.1021],[-51.8236,-21.1268],[-51.8655,-21.1305],[-51.879,-21.1481],[-51.8797,-21.1979],[-51.8485,-21.2666],[-51.8611,-21.3367],[-51.8999,-21.3776],[-51.9287,-21.4558],[-51.9622,-21.4933],[-52.0004,-21.5166],[-52.0571,-21.5036],[-52.0778,-21.5152],[-52.1022,-21.5698],[-52.0689,-21.5981],[-52.0495,-21.6431],[-52.0558,-21.6772],[-52.1038,-21.7461],[-52.1613,-21.7708],[-52.1894,-21.8443],[-52.2484,-21.9023],[-52.275,-21.9149],[-52.319,-21.9721],[-52.3392,-22.0478],[-52.3919,-22.1147],[-52.4082,-22.1416],[-52.4562,-22.1853],[-52.4877,-22.2172],[-52.5869,-22.2568],[-52.6553,-22.3031],[-52.6951,-22.3146],[-52.7983,-22.3783],[-52.8548,-22.4391],[-52.9482,-22.4734],[-52.9986,-22.4932],[-53.0144,-22.5207],[-53.0738,-22.5489],[-53.1079,-22.5955]]],[[[-46.1121,-23.5408],[-46.088,-23.5754],[-46.0822,-23.68],[-46.1009,-23.7184],[-46.0774,-23.7326],[-45.9765,-23.694],[-45.9361,-23.7012],[-45.9161,-23.6669],[-45.9394,-23.6323],[-45.9293,-23.5985],[-45.9652,-23.5808],[-45.9651,-23.5536],[-45.9927,-23.5199],[-46.0566,-23.5422],[-46.077,-23.5147],[-46.1121,-23.5408]]],[[[-45.4604,-23.8902],[-45.4443,-23.9341],[-45.4079,-23.9385],[-45.303,-23.9089],[-45.269,-23.965],[-45.2334,-23.948],[-45.2376,-23.9091],[-45.2904,-23.8691],[-45.2423,-23.8108],[-45.2327,-23.785],[-45.2633,-23.7415],[-45.34,-23.7275],[-45.3657,-23.809],[-45.4604,-23.8902]]]]}},{"type":"Feature","properties":{"codigo":"RC05","regiao":"Rio de Janeiro"},"geometry":{"type":"MultiPolygon","coordinates":[[[[-44.6387,-22.9142],[-44.7919,-22.9819],[-44.8244,-23.1627],[-44.8826,-23.2027],[-44.7242,-23.3676],[-44.583,-23.3576],[-44.5358,-23.2921],[-44.6527,-23.1884],[-44.7212,-23.2018],[-44.6686,-23.0542],[-44.5211,-23.0273],[-44.3449,-22.922],[-44.347,-23.0302],[-44.1657,-23.0339],[-44.0059,-22.9421],[-43.8806,-22.9158],[-43.796,-22.9171],[-43.5624,-23.0532],[-43.2855,-23.015],[-43.1615,-22.9053],[-43.2728,-22.8098],[-43.2146,-22.7277],[-43.0389,-22.6926],[-43.0259,-22.7261],[-43.0266,-22.7431],[-43.1034,-22.8559],[-43.1104,-22.9536],[-43.0138,-22.9768],[-42.6412,-22.9375],[-42.3816,-22.9357],[-42.2812,-22.9395],[-42.0373,-22.9331],[-41.9694,-22.8228],[-41.9735,-22.7296],[-41.9914,-22.5981],[-41.9792,-22.5625],[-41.8178,-22.417],[-41.6891,-22.3],[-41.5424,-22.2346],[-41.1338,-22.0955],[-41.004,-22.0211],[-40.9818,-21.9111],[-41.0481,-21.6178],[-41.0689,-21.4976],[-40.961,-21.3011],[-41.1371,-21.2274],[-41.2762,-21.2401],[-41.4696,-21.2028],[-41.5577,-21.1733],[-41.6455,-21.1434],[-41.7169,-21.1051],[-41.7338,-20.9433],[-41.7415,-20.8726],[-41.7752,-20.7999],[-41.8446,-20.7773],[-41.8747,-20.7659],[-41.9282,-20.794],[-41.9297,-20.8436],[-41.9759,-20.9355],[-42.1509,-20.974],[-42.0848,-21.023],[-42.0801,-21.0302],[-42.1185,-21.0748],[-42.1745,-21.1318],[-42.1953,-21.1603],[-42.2026,-21.2212],[-42.2242,-21.3378],[-42.2356,-21.3429],[-42.2754,-21.4275],[-42.2546,-21.487],[-42.346,-21.5827],[-42.3527,-21.5917],[-42.2666,-21.7145],[-42.3777,-21.7484],[-42.4597,-21.7848],[-42.4632,-21.7862],[-42.606,-21.8464],[-42.6653,-21.8733],[-42.9096,-21.9907],[-43.0022,-22.0328],[-43.1423,-22.1044],[-43.1306,-22.035],[-43.1312,-22.0292],[-43.2277,-22.0288],[-43.3266,-22.0078],[-43.3467,-22.0038],[-43.437,-22.06],[-43.5914,-22.0558],[-43.6684,-22.0861],[-43.7089,-22.0758],[-43.7644,-22.0632],[-43.9771,-22.1464],[-44.1794,-22.2285],[-44.1892,-22.2404],[-44.2599,-22.268],[-44.3596,-22.254],[-44.4571,-22.2576],[-44.5437,-22.3323],[-44.6619,-22.3805],[-44.6659,-22.3727],[-44.8035,-22.3937],[-44.8094,-22.4043],[-44.8094,-22.4056],[-44.6882,-22.5215],[-44.6459,-22.6039],[-44.4662,-22.6157],[-44.3609,-22.6118],[-44.3421,-22.5893],[-44.2264,-22.6046],[-44.1656,-22.6734],[-44.3181,-22.8451],[-44.4946,-22.8468],[-44.6295,-22.9049],[-44.6387,-22.9142]]],[[[-44.3498,-23.2155],[-44.14,-23.167],[-44.2334,-23.0907],[-44.373,-23.1682],[-44.3498,-23.2155]]],[[[-43.7931,-23.0615],[-43.9733,-23.0453],[-43.9543,-23.087],[-43.793,-23.0639],[-43.6678,-23.0531],[-43.6666,-23.0426],[-43.7931,-23.0615]]]]}},{"type":"Feature","properties":{"codigo":"RC06","regiao":"Minas Gerais"},"geometry":{"type":"Polygon","coordinates":[[[-47.6797,-18.3561],[-47.7695,-18.4183],[-47.8605,-18.4402],[-47.8646,-18.4491],[-47.9546,-18.5],[-48.027,-18.4361],[-48.2272,-18.346],[-48.2718,-18.3294],[-48.3418,-18.3708],[-48.6538,-18.3428],[-48.7872,-18.3532],[-48.9177,-18.3059],[-48.9595,-18.3235],[-49.0538,-18.4026],[-49.2058,-18.4141],[-49.2493,-18.5228],[-49.2927,-18.5639],[-49.3734,-18.6348],[-49.4862,-18.5323],[-49.5476,-18.5396],[-49.723,-18.6094],[-49.7577,-18.6097],[-49.7946,-18.6438],[-50.0288,-18.6015],[-50.0798,-18.6719],[-50.27,-18.6842],[-50.3523,-18.7603],[-50.4732,-18.9214],[-50.5352,-19.0989],[-50.6457,-19.1348],[-50.7331,-19.187],[-50.7404,-19.2132],[-50.828,-19.3108],[-50.8754,-19.4228],[-50.8256,-19.4733],[-50.935,-19.4675],[-50.9306,-19.5903],[-51.0382,-19.6918],[-51.0335,-19.7907],[-51.0005,-20.0854],[-50.886,-19.9904],[-50.8441,-19.9676],[-50.6864,-19.9162],[-50.6142,-19.861],[-50.562,-19.8136],[-50.4541,-19.7862],[-50.3374,-19.8695],[-50.1718,-19.8755],[-50.1062,-19.8743],[-50.0441,-19.9164],[-49.9062,-19.9372],[-49.7494,-19.9247],[-49.6132,-19.92],[-49.4538,-19.9781],[-49.2501,-19.9693],[-49.3059,-20.1169],[-49.2652,-20.2297],[-49.2597,-20.2588],[-49.1836,-20.3147],[-49.1207,-20.2705],[-49.0659,-20.1535],[-48.986,-20.1708],[-48.963,-20.4031],[-48.8865,-20.4369],[-48.8671,-20.3989],[-48.8871,-20.2753],[-48.8221,-20.1615],[-48.7296,-20.1503],[-48.6469,-20.167],[-48.5374,-20.1336],[-48.4516,-20.1259],[-48.2186,-20.1279],[-48.2034,-20.0455],[-48.0768,-20.1484],[-47.9812,-20.0364],[-47.8994,-20.1257],[-47.8698,-20.0762],[-47.8509,-19.9898],[-47.7626,-19.986],[-47.6397,-20.0472],[-47.5492,-19.9938],[-47.4896,-19.9693],[-47.3292,-20.1153],[-47.2311,-20.2192],[-47.2326,-20.2275],[-47.2767,-20.2916],[-47.2935,-20.4187],[-47.2235,-20.4911],[-47.1442,-20.5408],[-47.1377,-20.5611],[-47.1428,-20.5656],[-47.101,-20.682],[-47.1862,-20.7314],[-47.2269,-20.8555],[-47.2274,-20.8565],[-47.1813,-20.9538],[-47.1479,-21.0355],[-47.1176,-21.1532],[-47.1185,-21.1859],[-47.0442,-21.2674],[-46.9967,-21.3573],[-47.0115,-21.4223],[-46.8846,-21.4072],[-46.7815,-21.3707],[-46.7647,-21.3601],[-46.6476,-21.3796],[-46.6161,-21.4303],[-46.5089,-21.4891],[-46.5118,-21.5654],[-46.5547,-21.6534],[-46.6145,-21.6765],[-46.6307,-21.7686],[-46.6907,-21.8376],[-46.6179,-21.995],[-46.6499,-22.0095],[-46.7195,-22.0833],[-46.5985,-22.1364],[-46.6456,-22.1806],[-46.6718,-22.1783],[-46.6803,-22.2165],[-46.7233,-22.3066],[-46.6609,-22.366],[-46.6163,-22.4386],[-46.5499,-22.4695],[-46.4565,-22.5217],[-46.4243,-22.5994],[-46.3931,-22.663],[-46.4731,-22.705],[-46.3326,-22.7661],[-46.3745,-22.8202],[-46.3449,-22.9052],[-46.1922,-22.8652],[-46.0507,-22.897],[-45.9565,-22.8498],[-45.871,-22.8715],[-45.768,-22.836],[-45.7122,-22.7698],[-45.8051,-22.7373],[-45.694,-22.6517],[-45.73,-22.6187],[-45.6787,-22.5733],[-45.6662,-22.6512],[-45.5765,-22.6017],[-45.5804,-22.6529],[-45.4804,-22.5905],[-45.4204,-22.6212],[-45.4,-22.6537],[-45.2691,-22.6114],[-45.1668,-22.5307],[-45.1244,-22.4972],[-45.1028,-22.4899],[-44.9659,-22.4752],[-44.8439,-22.4278],[-44.8094,-22.4056],[-44.8094,-22.4043],[-44.8035,-22.3937],[-44.6659,-22.3727],[-44.6619,-22.3805],[-44.5437,-22.3323],[-44.4571,-22.2576],[-44.3596,-22.254],[-44.2599,-22.268],[-44.1892,-22.2404],[-44.1794,-22.2285],[-43.9771,-22.1464],[-43.7644,-22.0632],[-43.7089,-22.0758],[-43.6684,-22.0861],[-43.5914,-22.0558],[-43.437,-22.06],[-43.3467,-22.0038],[-43.3266,-22.0078],[-43.2277,-22.0288],[-43.1312,-22.0292],[-43.1306,-22.035],[-43.1423,-22.1044],[-43.0022,-22.0328],[-42.9096,-21.9907],[-42.6653,-21.8733],[-42.606,-21.8464],[-42.4632,-21.7862],[-42.4597,-21.7848],[-42.3777,-21.7484],[-42.2666,-21.7145],[-42.3527,-21.5917],[-42.346,-21.5827],[-42.2546,-21.487],[-42.2754,-21.4275],[-42.2356,-21.3429],[-42.2242,-21.3378],[-42.2026,-21.2212],[-42.1953,-21.1603],[-42.1745,-21.1318],[-42.1185,-21.0748],[-42.0801,-21.0302],[-42.0848,-21.023],[-42.1509,-20.974],[-41.9759,-20.9355],[-41.9297,-20.8436],[-41.9282,-20.794],[-41.8747,-20.7659],[-41.8507,-20.6912],[-41.8254,-20.4833],[-41.7995,-20.477],[-41.8034,-20.4222],[-41.8366,-20.4091],[-41.8595,-20.3729],[-41.8221,-20.3109],[-41.775,-20.2601],[-41.7568,-20.2069],[-41.666,-20.207],[-41.4156,-20.2074],[-41.4119,-20.2061],[-41.2979,-19.9376],[-41.2714,-19.9422],[-41.187,-19.8915],[-41.1746,-19.7672],[-41.1685,-19.6722],[-40.9722,-19.5053],[-40.9664,-19.4236],[-40.9323,-19.2512],[-40.9354,-19.2227],[-40.9643,-19.1221],[-41.0608,-19.0565],[-41.065,-18.9448],[-41.1371,-18.8906],[-41.2432,-18.8538],[-41.2324,-18.7973],[-41.1468,-18.798],[-41.0254,-18.8372],[-40.9168,-18.8155],[-40.9415,-18.6907],[-41.0509,-18.6342],[-41.0258,-18.5276],[-41.023,-18.4573],[-41.1818,-18.4396],[-41.1442,-18.4053],[-41.1589,-18.3082],[-41.0519,-18.1651],[-40.7733,-18.1076],[-40.9024,-17.9862],[-40.7985,-17.9569],[-40.662,-18.0127],[-40.527,-17.8919],[-40.3684,-17.9229],[-40.2224,-17.9804],[-40.2119,-17.8949],[-40.2237,-17.7343],[-40.2402,-17.7349],[-40.3441,-17.6156],[-40.4145,-17.6101],[-40.483,-17.4885],[-40.5195,-17.4474],[-40.6047,-17.3562],[-40.5478,-17.2837],[-40.5787,-17.1496],[-40.4923,-16.8874],[-40.4336,-16.8874],[-40.4077,-16.8987],[-40.4013,-16.8902],[-40.2816,-16.9012],[-40.307,-16.6968],[-40.3132,-16.6786],[-40.2755,-16.5734],[-40.1579,-16.5795],[-40.1102,-16.4493],[-40.0172,-16.3478],[-39.9178,-16.2843],[-39.8568,-16.1138],[-39.9148,-16],[-40.0044,-16.0018],[-40.1275,-15.9071],[-40.2357,-15.8035],[-40.425,-15.8057],[-40.45,-15.7616],[-40.5198,-15.7976],[-40.6449,-15.7289],[-40.7006,-15.6673],[-40.7677,-15.7141],[-40.8168,-15.6476],[-41.1425,-15.772],[-41.3302,-15.7433],[-41.3422,-15.6386],[-41.3619,-15.495],[-41.3643,-15.493],[-41.4561,-15.4103],[-41.7599,-15.138],[-41.8023,-15.1003],[-41.8103,-15.1014],[-41.9534,-15.1757],[-42.0485,-15.1707],[-42.1733,-15.086],[-42.2656,-15.125],[-42.2776,-15.1137],[-42.479,-15.0142],[-42.5157,-14.9829],[-42.6187,-14.9397],[-42.8721,-14.7647],[-42.9389,-14.708],[-43.175,-14.6511],[-43.3112,-14.6697],[-43.487,-14.7903],[-43.5308,-14.8155],[-43.531,-14.8154],[-43.7122,-14.7153],[-43.8835,-14.6525],[-43.8812,-14.5624],[-43.8184,-14.3877],[-43.7832,-14.3392],[-43.9696,-14.274],[-44.0457,-14.2838],[-44.296,-14.2532],[-44.4118,-14.2816],[-44.5572,-14.337],[-44.7414,-14.4671],[-44.8332,-14.4998],[-44.877,-14.5992],[-45.0403,-14.6805],[-45.0958,-14.753],[-45.2056,-14.7447],[-45.3057,-14.8337],[-45.6169,-15.0141],[-45.7398,-15.1204],[-45.9717,-15.1539],[-46.0771,-15.2647],[-45.9661,-14.9656],[-46.0376,-14.8747],[-46.0394,-14.8753],[-46.1768,-14.9494],[-46.3193,-14.9004],[-46.3222,-14.8146],[-46.5034,-14.7041],[-46.5605,-14.815],[-46.5027,-15.0509],[-46.5261,-15.0564],[-46.6254,-15.0895],[-46.8569,-15.0103],[-46.9251,-15.0575],[-46.9373,-15.205],[-46.8737,-15.2854],[-46.8495,-15.3732],[-46.9305,-15.4431],[-46.9461,-15.5633],[-46.8826,-15.6101],[-46.8062,-15.8706],[-46.9525,-15.9166],[-47.1366,-15.9274],[-47.31,-16.0363],[-47.3085,-16.05],[-47.3226,-16.2091],[-47.4544,-16.4646],[-47.4127,-16.5744],[-47.2955,-16.6258],[-47.2257,-16.7205],[-47.2084,-16.8747],[-47.1274,-16.9787],[-47.1821,-17.064],[-47.352,-17.1665],[-47.4886,-17.3487],[-47.5108,-17.3261],[-47.5246,-17.4119],[-47.5366,-17.4571],[-47.4669,-17.534],[-47.3131,-17.5434],[-47.2648,-17.6114],[-47.3712,-17.8313],[-47.2834,-18.0408],[-47.4079,-18.1419],[-47.4298,-18.1652],[-47.607,-18.2462],[-47.6102,-18.3157],[-47.6797,-18.3561]]]}},{"type":"Feature","properties":{"codigo":"RC07","regiao":"Espírito Santo"},"geometry":{"type":"Polygon","coordinates":[[[-41.2714,-19.9422],[-41.2979,-19.9376],[-41.4119,-20.2061],[-41.4156,-20.2074],[-41.666,-20.207],[-41.7568,-20.2069],[-41.775,-20.2601],[-41.8221,-20.3109],[-41.8595,-20.3729],[-41.8366,-20.4091],[-41.8034,-20.4222],[-41.7995,-20.477],[-41.8254,-20.4833],[-41.8507,-20.6912],[-41.8747,-20.7659],[-41.8446,-20.7773],[-41.7752,-20.7999],[-41.7415,-20.8726],[-41.7338,-20.9433],[-41.7169,-21.1051],[-41.6455,-21.1434],[-41.5577,-21.1733],[-41.4696,-21.2028],[-41.2762,-21.2401],[-41.1371,-21.2274],[-40.961,-21.3011],[-40.9261,-21.1902],[-40.8092,-20.9958],[-40.7589,-20.8657],[-40.7012,-20.8346],[-40.5709,-20.7652],[-40.3772,-20.5355],[-40.2744,-20.32],[-40.2149,-20.2426],[-40.1918,-20.0545],[-40.1545,-20.0121],[-40.0548,-19.8148],[-39.9117,-19.687],[-39.8108,-19.6496],[-39.6891,-19.3049],[-39.7193,-19.097],[-39.7465,-18.7062],[-39.7282,-18.5183],[-39.6678,-18.3372],[-39.9118,-18.179],[-40.2204,-17.9816],[-40.2224,-17.9804],[-40.3684,-17.9229],[-40.527,-17.8919],[-40.662,-18.0127],[-40.7985,-17.9569],[-40.9024,-17.9862],[-40.7733,-18.1076],[-41.0519,-18.1651],[-41.1589,-18.3082],[-41.1442,-18.4053],[-41.1818,-18.4396],[-41.023,-18.4573],[-41.0258,-18.5276],[-41.0509,-18.6342],[-40.9415,-18.6907],[-40.9168,-18.8155],[-41.0254,-18.8372],[-41.1468,-18.798],[-41.2324,-18.7973],[-41.2432,-18.8538],[-41.1371,-18.8906],[-41.065,-18.9448],[-41.0608,-19.0565],[-40.9643,-19.1221],[-40.9354,-19.2227],[-40.9323,-19.2512],[-40.9664,-19.4236],[-40.9722,-19.5053],[-41.1685,-19.6722],[-41.1746,-19.7672],[-41.187,-19.8915],[-41.2714,-19.9422]]]}},{"type":"Feature","properties":{"codigo":"RC08","regiao":"Paraná"},"geometry":{"type":"MultiPolygon","coordinates":[[[[-49.1298,-24.6819],[-49.1579,-24.6719],[-49.2079,-24.7009],[-49.312,-24.6635],[-49.316,-24.5555],[-49.2505,-24.4454],[-49.2524,-24.4339],[-49.2535,-24.405],[-49.2542,-24.3179],[-49.3507,-24.2208],[-49.3366,-24.1376],[-49.4872,-24.0246],[-49.5223,-23.9166],[-49.5358,-23.9282],[-49.608,-23.8394],[-49.5597,-23.7936],[-49.5747,-23.676],[-49.6021,-23.6521],[-49.6242,-23.5233],[-49.5981,-23.4582],[-49.6379,-23.3495],[-49.6271,-23.2818],[-49.7165,-23.1484],[-49.8095,-23.0892],[-49.8194,-23.077],[-49.8337,-23.0659],[-49.9725,-22.9585],[-49.9742,-22.9545],[-50.0528,-22.9055],[-50.1331,-22.9399],[-50.2039,-22.9528],[-50.3402,-22.9481],[-50.3592,-22.9161],[-50.5268,-22.9348],[-50.5772,-22.904],[-50.6373,-22.9069],[-50.7959,-22.9512],[-50.8236,-22.8661],[-50.9277,-22.7977],[-50.9787,-22.7826],[-51.0044,-22.7937],[-51.176,-22.7388],[-51.2137,-22.7237],[-51.2982,-22.6735],[-51.3331,-22.6671],[-51.4464,-22.653],[-51.5172,-22.69],[-51.6279,-22.6582],[-51.6305,-22.6579],[-51.7182,-22.669],[-51.8558,-22.6317],[-51.8902,-22.6132],[-51.9015,-22.6019],[-52.0284,-22.5395],[-52.0329,-22.5392],[-52.1356,-22.5269],[-52.1523,-22.5692],[-52.1828,-22.6554],[-52.29,-22.6282],[-52.4214,-22.6106],[-52.4457,-22.6083],[-52.5378,-22.616],[-52.5893,-22.5661],[-52.7643,-22.6086],[-52.7829,-22.6021],[-52.9247,-22.5656],[-53.0117,-22.5988],[-53.0385,-22.6184],[-53.1052,-22.6219],[-53.1279,-22.6523],[-53.24,-22.7335],[-53.3274,-22.7646],[-53.4104,-22.8139],[-53.5468,-22.8901],[-53.634,-23.0034],[-53.6366,-23.125],[-53.7149,-23.2834],[-53.7622,-23.3593],[-53.9602,-23.4434],[-54.0306,-23.6282],[-54.0511,-23.6872],[-54.0836,-23.8055],[-54.084,-23.865],[-54.169,-23.999],[-54.2862,-24.0682],[-54.3456,-24.157],[-54.2616,-24.375],[-54.2956,-24.4276],[-54.3185,-24.5907],[-54.3269,-24.6595],[-54.3323,-24.6945],[-54.3899,-24.7773],[-54.4572,-25.0393],[-54.4249,-25.1533],[-54.4736,-25.2115],[-54.6191,-25.4507],[-54.5935,-25.5922],[-54.4453,-25.6657],[-54.2963,-25.5576],[-54.1764,-25.5844],[-54.144,-25.521],[-53.9912,-25.5861],[-53.8498,-25.6908],[-53.8427,-25.7707],[-53.8189,-25.9123],[-53.8368,-25.9699],[-53.7342,-26.0428],[-53.6721,-26.1762],[-53.6514,-26.2068],[-53.639,-26.2508],[-53.4309,-26.2821],[-53.4308,-26.282],[-53.4304,-26.2819],[-53.3423,-26.2491],[-53.1693,-26.3481],[-53.1602,-26.3506],[-53.028,-26.3702],[-52.9377,-26.3622],[-52.9083,-26.3594],[-52.7628,-26.3536],[-52.7006,-26.358],[-52.645,-26.3809],[-52.557,-26.4078],[-52.5232,-26.3996],[-52.4426,-26.4381],[-52.1588,-26.4662],[-52.0291,-26.5469],[-51.824,-26.5819],[-51.5121,-26.5817],[-51.4115,-26.7171],[-51.3911,-26.6632],[-51.2389,-26.6279],[-51.2221,-26.5937],[-51.3004,-26.4177],[-51.2704,-26.3869],[-51.2522,-26.3515],[-51.2029,-26.2982],[-51.0789,-26.2274],[-50.9915,-26.235],[-50.8997,-26.2893],[-50.7033,-26.188],[-50.6975,-26.1818],[-50.6285,-26.0628],[-50.5702,-26.002],[-50.3657,-26.1121],[-50.2685,-26.0428],[-50.1898,-26.07],[-49.9934,-26.0114],[-49.9341,-26.0189],[-49.8646,-26.0358],[-49.6905,-26.1895],[-49.6031,-26.2267],[-49.4872,-26.1942],[-49.486,-26.1852],[-49.4292,-26.17],[-49.3608,-26.1374],[-49.2345,-26.0307],[-48.9683,-25.9867],[-48.9504,-25.99],[-48.6821,-25.9837],[-48.5953,-25.9768],[-48.5496,-25.8523],[-48.4771,-25.7137],[-48.3583,-25.5859],[-48.3097,-25.4933],[-48.214,-25.473],[-48.0961,-25.3089],[-48.2397,-24.9914],[-48.3241,-25.0367],[-48.4119,-24.9804],[-48.5563,-25.0843],[-48.5981,-25.0033],[-48.5664,-24.9168],[-48.5381,-24.7262],[-48.6012,-24.6691],[-48.8108,-24.675],[-48.9123,-24.674],[-49.1298,-24.6819]]],[[[-53.6542,-25.3509],[-53.6251,-25.3464],[-53.6265,-25.3466],[-53.6542,-25.3509]]],[[[-53.3778,-23.2407],[-53.3781,-23.2409],[-53.3763,-23.2398],[-53.3778,-23.2407]]]]}},{"type":"Feature","properties":{"codigo":"RC09","regiao":"Sul (RS e SC)"},"geometry":{"type":"Polygon","coordinates":[[[-57.5941,-30.179],[-57.568,-30.2522],[-57.3894,-30.3025],[-57.2042,-30.2851],[-57.1152,-30.1137],[-56.8504,-30.0889],[-56.6581,-30.2013],[-56.5461,-30.3606],[-56.4622,-30.3845],[-56.3781,-30.5015],[-56.2899,-30.5323],[-56.1877,-30.6047],[-56.1501,-30.7055],[-56.0236,-30.7857],[-56.0111,-31.0816],[-55.8708,-31.0716],[-55.6662,-30.954],[-55.5786,-30.8329],[-55.437,-31.0047],[-55.3514,-31.0376],[-55.2468,-31.2522],[-55.0745,-31.3321],[-55.0358,-31.2839],[-54.8365,-31.4419],[-54.7013,-31.4357],[-54.5869,-31.4565],[-54.4729,-31.5704],[-54.4546,-31.6528],[-54.088,-31.9312],[-53.9475,-31.9546],[-53.7256,-32.0984],[-53.6765,-32.2381],[-53.644,-32.3849],[-53.4369,-32.5482],[-53.1764,-32.6585],[-52.9974,-32.5912],[-52.968,-32.4905],[-52.8024,-32.447],[-52.7242,-32.37],[-52.8211,-32.3341],[-52.7189,-32.1542],[-52.6229,-32.1456],[-52.6884,-32.3195],[-52.6023,-32.4606],[-52.6209,-32.6379],[-52.7234,-32.8339],[-52.8322,-32.915],[-53.0016,-32.7975],[-53.1239,-32.7938],[-53.1744,-33.0035],[-53.2602,-33.1074],[-53.3253,-33.0652],[-53.4692,-33.2554],[-53.4248,-33.4376],[-53.5078,-33.5311],[-53.5228,-33.6893],[-53.422,-33.7438],[-53.37,-33.7439],[-52.7767,-33.2831],[-52.6239,-33.1042],[-52.4952,-32.8672],[-52.4229,-32.6288],[-52.293,-32.3383],[-52.0972,-32.1617],[-52.1148,-31.942],[-52.2566,-31.8498],[-52.2236,-31.7889],[-52.1524,-31.6993],[-52.036,-31.6958],[-52.0135,-31.5972],[-52.0102,-31.5009],[-51.9195,-31.3108],[-51.8117,-31.2857],[-51.6191,-31.269],[-51.6287,-31.153],[-51.5378,-31.115],[-51.442,-31.0874],[-51.4993,-30.9758],[-51.4488,-30.8722],[-51.3727,-30.8725],[-51.3809,-30.6435],[-51.3188,-30.6461],[-51.2654,-30.4798],[-51.1358,-30.4368],[-51.2101,-30.3013],[-51.3283,-30.2265],[-51.3012,-30.0542],[-51.2719,-30.039],[-51.2327,-30.1827],[-51.0629,-30.2596],[-51.0556,-30.392],[-50.93,-30.4358],[-50.9148,-30.3264],[-50.6561,-30.286],[-50.6208,-30.1984],[-50.5426,-30.2523],[-50.5827,-30.4901],[-50.7295,-30.3681],[-50.6864,-30.5008],[-50.6901,-30.7069],[-50.7538,-30.8189],[-50.9668,-30.8961],[-50.9546,-31.0032],[-51.179,-31.1342],[-51.1575,-31.2847],[-51.2375,-31.4574],[-51.3611,-31.532],[-51.4282,-31.492],[-51.6587,-31.7669],[-51.8377,-31.801],[-51.9028,-31.8705],[-52.0981,-31.8359],[-52.0152,-31.9224],[-52.0772,-32.1432],[-51.8309,-31.9192],[-51.4272,-31.6956],[-51.186,-31.5044],[-50.8421,-31.19],[-50.7672,-31.1101],[-50.3343,-30.5008],[-50.2519,-30.3049],[-50.2241,-30.2363],[-50.1703,-30.0971],[-50.1192,-29.9762],[-50.0753,-29.8845],[-50.0637,-29.86],[-50.0176,-29.7725],[-49.9337,-29.6251],[-49.9222,-29.6072],[-49.8035,-29.4436],[-49.7129,-29.3256],[-49.6451,-29.2384],[-49.516,-29.0957],[-49.3764,-28.9561],[-49.2901,-28.8832],[-49.1879,-28.8022],[-48.858,-28.6157],[-48.7465,-28.5051],[-48.7063,-28.3414],[-48.6343,-28.113],[-48.6209,-27.9449],[-48.587,-27.9044],[-48.5766,-27.844],[-48.5176,-27.7815],[-48.3706,-27.4498],[-48.4172,-27.3806],[-48.5263,-27.4083],[-48.5948,-27.3161],[-48.6027,-27.2179],[-48.5784,-27.2115],[-48.4953,-27.1985],[-48.508,-27.1105],[-48.5856,-27.1449],[-48.5891,-27.061],[-48.6283,-26.9601],[-48.6422,-26.9127],[-48.6212,-26.8262],[-48.6613,-26.7712],[-48.6819,-26.7184],[-48.6648,-26.5809],[-48.6507,-26.5473],[-48.5943,-26.4522],[-48.4931,-26.2186],[-48.5694,-26.1677],[-48.5953,-25.9768],[-48.6821,-25.9837],[-48.9504,-25.99],[-48.9683,-25.9867],[-49.2345,-26.0307],[-49.3608,-26.1374],[-49.4292,-26.17],[-49.486,-26.1852],[-49.4872,-26.1942],[-49.6031,-26.2267],[-49.6905,-26.1895],[-49.8646,-26.0358],[-49.9341,-26.0189],[-49.9934,-26.0114],[-50.1898,-26.07],[-50.2685,-26.0428],[-50.3657,-26.1121],[-50.5702,-26.002],[-50.6285,-26.0628],[-50.6975,-26.1818],[-50.7033,-26.188],[-50.8997,-26.2893],[-50.9915,-26.235],[-51.0789,-26.2274],[-51.2029,-26.2982],[-51.2522,-26.3515],[-51.2704,-26.3869],[-51.3004,-26.4177],[-51.2221,-26.5937],[-51.2389,-26.6279],[-51.3911,-26.6632],[-51.4115,-26.7171],[-51.5121,-26.5817],[-51.824,-26.5819],[-52.0291,-26.5469],[-52.1588,-26.4662],[-52.4426,-26.4381],[-52.5232,-26.3996],[-52.557,-26.4078],[-52.645,-26.3809],[-52.7006,-26.358],[-52.7628,-26.3536],[-52.9083,-26.3594],[-52.9377,-26.3622],[-53.028,-26.3702],[-53.1602,-26.3506],[-53.1693,-26.3481],[-53.3423,-26.2491],[-53.4304,-26.2819],[-53.4309,-26.2821],[-53.639,-26.2508],[-53.6888,-26.4286],[-53.6884,-26.4433],[-53.7209,-26.5378],[-53.7307,-26.6007],[-53.7144,-26.7508],[-53.6773,-26.8439],[-53.6754,-26.8928],[-53.6717,-26.9428],[-53.7327,-27.0042],[-53.8371,-27.1684],[-53.9466,-27.1513],[-54.055,-27.264],[-54.1115,-27.3025],[-54.1866,-27.2649],[-54.2174,-27.385],[-54.2839,-27.4478],[-54.4114,-27.4053],[-54.4746,-27.4812],[-54.5894,-27.4582],[-54.632,-27.5457],[-54.7233,-27.5635],[-54.8171,-27.5356],[-54.9029,-27.6989],[-54.9993,-27.7905],[-55.0517,-27.8524],[-55.2027,-27.8579],[-55.2778,-27.9329],[-55.3398,-27.966],[-55.3755,-28.034],[-55.4384,-28.0863],[-55.7712,-28.2415],[-55.6692,-28.3408],[-55.6922,-28.4164],[-55.8506,-28.3554],[-55.884,-28.4792],[-56.0232,-28.5228],[-56.0024,-28.5783],[-56.1942,-28.7752],[-56.2997,-28.8081],[-56.3233,-28.9247],[-56.4304,-29.0795],[-56.5888,-29.1198],[-56.6645,-29.295],[-56.78,-29.42],[-56.9711,-29.6434],[-57.1319,-29.7702],[-57.2354,-29.7808],[-57.3297,-29.8876],[-57.3281,-29.9719],[-57.4646,-30.1103],[-57.5941,-30.179]]]}},{"type":"Feature","properties":{"codigo":"RC10","regiao":"Centro-Oeste"},"geometry":{"type":"Polygon","coordinates":[[[-61.6283,-9.2571],[-61.6162,-9.3268],[-61.5817,-9.4591],[-61.477,-9.6299],[-61.5746,-9.7178],[-61.5079,-9.8611],[-61.5402,-10.0002],[-61.5849,-10.0616],[-61.5533,-10.307],[-61.4618,-10.4199],[-61.4766,-10.7666],[-61.5503,-10.9861],[-61.429,-10.9875],[-61.0006,-10.9922],[-60.4601,-10.9899],[-60.3916,-11.0938],[-59.9768,-11.1224],[-59.9797,-11.2395],[-59.9172,-11.3384],[-59.9344,-11.4237],[-60.1109,-11.5825],[-60.0989,-11.8456],[-59.9842,-11.9148],[-59.9794,-12.0295],[-59.8998,-12.1172],[-59.8868,-12.2451],[-59.7794,-12.3415],[-59.9477,-12.5993],[-60.0289,-12.6186],[-60.1172,-12.9596],[-60.1833,-12.9676],[-60.2676,-13.0773],[-60.3332,-13.258],[-60.3716,-13.3186],[-60.3879,-13.4547],[-60.6322,-13.5717],[-60.7093,-13.693],[-60.4727,-13.7937],[-60.4509,-13.9364],[-60.3831,-13.9929],[-60.4806,-14.0958],[-60.4536,-14.3141],[-60.2736,-14.621],[-60.245,-15.0975],[-60.5757,-15.0975],[-60.2395,-15.4746],[-60.1741,-16.2669],[-59.4692,-16.2796],[-58.7857,-16.308],[-58.4306,-16.3227],[-58.3222,-16.2664],[-58.3441,-16.5184],[-58.4362,-16.5929],[-58.4768,-16.9367],[-58.392,-17.0401],[-58.3989,-17.184],[-58.2467,-17.3552],[-57.9964,-17.5156],[-57.8834,-17.4495],[-57.7523,-17.5645],[-57.783,-17.6368],[-57.7113,-17.7287],[-57.7214,-17.829],[-57.5741,-18.1316],[-57.4548,-18.2334],[-57.5583,-18.2407],[-57.7667,-18.8995],[-57.7104,-19.0347],[-57.7833,-19.0351],[-58.1314,-19.7594],[-57.8591,-19.9717],[-58.1686,-20.1658],[-58.0966,-20.2539],[-58.0732,-20.388],[-57.9965,-20.4434],[-58.0131,-20.6083],[-57.9582,-20.7049],[-57.8647,-20.7464],[-57.9595,-20.7979],[-57.8594,-20.8249],[-57.9289,-20.8952],[-57.8337,-20.9363],[-57.8664,-21.0393],[-57.8547,-21.3169],[-57.9616,-21.5624],[-57.8852,-21.6836],[-57.9698,-21.8443],[-57.9162,-21.8763],[-57.9951,-22.0887],[-57.7477,-22.139],[-57.6101,-22.0954],[-57.5168,-22.1736],[-57.3202,-22.2456],[-57.0497,-22.232],[-56.844,-22.3011],[-56.5691,-22.2066],[-56.5034,-22.0974],[-56.3929,-22.075],[-56.3455,-22.1813],[-56.2091,-22.2782],[-55.8431,-22.2871],[-55.7667,-22.3842],[-55.7236,-22.5518],[-55.6136,-22.6928],[-55.6659,-22.8525],[-55.5968,-23.1526],[-55.5391,-23.2412],[-55.5045,-23.3785],[-55.5604,-23.4831],[-55.5304,-23.6278],[-55.4363,-23.7168],[-55.4463,-23.9169],[-55.4029,-23.9742],[-55.262,-23.9917],[-55.0623,-23.9933],[-54.6838,-23.8305],[-54.4268,-23.9311],[-54.2862,-24.0682],[-54.169,-23.999],[-54.084,-23.865],[-54.0836,-23.8055],[-54.0511,-23.6872],[-54.0306,-23.6282],[-53.9602,-23.4434],[-53.7622,-23.3593],[-53.7149,-23.2834],[-53.6366,-23.125],[-53.634,-23.0034],[-53.5468,-22.8901],[-53.4104,-22.8139],[-53.3274,-22.7646],[-53.24,-22.7335],[-53.1279,-22.6523],[-53.1052,-22.6219],[-53.0738,-22.5489],[-52.9482,-22.4734],[-52.6553,-22.3031],[-52.4562,-22.1853],[-52.3919,-22.1147],[-52.319,-21.9721],[-52.1613,-21.7708],[-52.0558,-21.6772],[-52.1022,-21.5698],[-51.9622,-21.4933],[-51.8611,-21.3367],[-51.8797,-21.1979],[-51.7725,-21.0511],[-51.6236,-20.9444],[-51.6349,-20.7548],[-51.5752,-20.6234],[-51.5676,-20.6183],[-51.4188,-20.465],[-51.3435,-20.3556],[-51.1094,-20.2801],[-51.0012,-20.0963],[-51.0005,-20.0854],[-51.0335,-19.7907],[-51.0382,-19.6918],[-50.9306,-19.5903],[-50.935,-19.4675],[-50.8256,-19.4733],[-50.8754,-19.4228],[-50.828,-19.3108],[-50.7404,-19.2132],[-50.7331,-19.187],[-50.6457,-19.1348],[-50.5352,-19.0989],[-50.4732,-18.9214],[-50.3523,-18.7603],[-50.27,-18.6842],[-50.0798,-18.6719],[-50.0288,-18.6015],[-49.7946,-18.6438],[-49.7577,-18.6097],[-49.723,-18.6094],[-49.5476,-18.5396],[-49.4862,-18.5323],[-49.3734,-18.6348],[-49.2927,-18.5639],[-49.2493,-18.5228],[-49.2058,-18.4141],[-49.0538,-18.4026],[-48.9595,-18.3235],[-48.9177,-18.3059],[-48.7872,-18.3532],[-48.6538,-18.3428],[-48.3418,-18.3708],[-48.2718,-18.3294],[-48.2272,-18.346],[-48.027,-18.4361],[-47.9546,-18.5],[-47.8646,-18.4491],[-47.8605,-18.4402],[-47.7695,-18.4183],[-47.6797,-18.3561],[-47.6102,-18.3157],[-47.607,-18.2462],[-47.4298,-18.1652],[-47.4079,-18.1419],[-47.2834,-18.0408],[-47.3712,-17.8313],[-47.2648,-17.6114],[-47.3131,-17.5434],[-47.4669,-17.534],[-47.5366,-17.4571],[-47.5246,-17.4119],[-47.5108,-17.3261],[-47.4886,-17.3487],[-47.352,-17.1665],[-47.1821,-17.064],[-47.1274,-16.9787],[-47.2084,-16.8747],[-47.2257,-16.7205],[-47.2955,-16.6258],[-47.4127,-16.5744],[-47.4544,-16.4646],[-47.3226,-16.2091],[-47.3085,-16.05],[-47.31,-16.0363],[-47.1366,-15.9274],[-46.9525,-15.9166],[-46.8062,-15.8706],[-46.8826,-15.6101],[-46.9461,-15.5633],[-46.9305,-15.4431],[-46.8495,-15.3732],[-46.8737,-15.2854],[-46.9373,-15.205],[-46.9251,-15.0575],[-46.8569,-15.0103],[-46.6254,-15.0895],[-46.5261,-15.0564],[-46.5027,-15.0509],[-46.5605,-14.815],[-46.5034,-14.7041],[-46.3222,-14.8146],[-46.3193,-14.9004],[-46.1768,-14.9494],[-46.0394,-14.8753],[-46.0251,-14.6781],[-46.021,-14.6699],[-45.9889,-14.6558],[-46.0001,-14.4466],[-45.9072,-14.3552],[-46.0601,-14.2319],[-46.1841,-14.1569],[-46.227,-14.049],[-46.2121,-14.0101],[-46.2642,-13.9474],[-46.2357,-13.7081],[-46.1627,-13.6036],[-46.2475,-13.5787],[-46.209,-13.4656],[-46.2485,-13.436],[-46.0683,-13.2954],[-46.1032,-13.2575],[-46.2925,-13.3169],[-46.3277,-13.2529],[-46.2987,-13.0638],[-46.113,-12.918],[-46.3644,-12.9907],[-46.418,-12.8224],[-46.4459,-12.9358],[-46.4546,-12.9712],[-46.6354,-12.9699],[-46.7506,-12.9692],[-46.8548,-13.0676],[-47.3929,-13.2624],[-47.5687,-13.1169],[-47.6651,-13.2184],[-47.6223,-13.3687],[-47.6797,-13.4682],[-47.7982,-13.329],[-47.9668,-13.315],[-48.0745,-13.239],[-48.1699,-13.3003],[-48.1437,-13.1525],[-48.4589,-13.2804],[-48.5161,-13.1391],[-48.5801,-13.3133],[-48.5759,-13.1242],[-48.6447,-13.011],[-48.8703,-12.8033],[-48.8798,-12.8171],[-48.9762,-12.9579],[-49.1177,-12.7901],[-49.2377,-12.8838],[-49.3556,-13.1561],[-49.3683,-13.2723],[-49.9088,-12.9751],[-50.1852,-12.8936],[-50.3108,-12.7916],[-50.2448,-12.5975],[-50.1934,-12.5638],[-50.2152,-12.482],[-50.1418,-12.3954],[-50.3055,-12.4924],[-50.4342,-12.6494],[-50.511,-12.8609],[-50.6227,-12.8197],[-50.6839,-12.6481],[-50.6236,-12.4553],[-50.6437,-12.223],[-50.6814,-12.2169],[-50.6822,-11.9909],[-50.6393,-11.8846],[-50.7173,-11.7274],[-50.6701,-11.5816],[-50.7389,-11.5445],[-50.6999,-11.3131],[-50.6095,-11.0674],[-50.6326,-10.9319],[-50.5706,-10.7525],[-50.6035,-10.6609],[-50.6033,-10.6598],[-50.5414,-10.6093],[-50.4737,-10.4049],[-50.4181,-10.3546],[-50.3983,-10.1555],[-50.3026,-10.0354],[-50.2248,-9.8412],[-50.846,-9.8006],[-51.3043,-9.7729],[-52.2567,-9.7077],[-52.6193,-9.6823],[-53.1334,-9.6452],[-53.5891,-9.611],[-54.1068,-9.5719],[-54.6135,-9.5358],[-54.9956,-9.5053],[-55.8672,-9.4343],[-56.1565,-9.4104],[-56.2723,-9.4008],[-56.6719,-9.3674],[-56.7543,-9.4064],[-56.8201,-9.2463],[-56.9955,-9.2338],[-57.0598,-9.1824],[-57.0392,-9.0983],[-57.2038,-8.9208],[-57.4162,-8.859],[-57.4175,-8.7926],[-57.5929,-8.7565],[-57.6334,-8.5268],[-57.6866,-8.407],[-57.6417,-8.2199],[-57.8319,-7.9615],[-57.8967,-7.6779],[-58.0614,-7.3952],[-58.1371,-7.3561],[-58.2131,-7.4585],[-58.2022,-7.6209],[-58.2941,-7.7715],[-58.3782,-7.8274],[-58.2864,-8.0885],[-58.3149,-8.3231],[-58.4178,-8.4895],[-58.3895,-8.5948],[-58.4373,-8.7034],[-58.3284,-8.7122],[-58.4419,-8.7987],[-59.1274,-8.8033],[-60.4202,-8.7966],[-61.5831,-8.7987],[-61.4692,-8.9201],[-61.5558,-9.0924],[-61.5293,-9.2487],[-61.6283,-9.2571]],[[-51.4195,-14.9904],[-51.3499,-14.9903],[-51.3413,-14.9805],[-51.3474,-14.9877],[-51.3531,-14.9939],[-51.4195,-14.9904]],[[-51.3387,-14.9751],[-51.3331,-14.9701],[-51.3071,-14.981],[-51.3387,-14.9751]]]}},{"type":"Feature","properties":{"codigo":"RC11","regiao":"Nordeste"},"geometry":{"type":"MultiPolygon","coordinates":[[[[-48.7552,-5.3492],[-48.6061,-5.3365],[-48.5611,-5.2302],[-48.4872,-5.1939],[-48.3639,-5.1684],[-48.225,-5.2355],[-48.1849,-5.257],[-48.0691,-5.2715],[-48.0147,-5.238],[-47.9373,-5.2396],[-47.8667,-5.3053],[-47.8275,-5.3866],[-47.6804,-5.4154],[-47.5603,-5.4632],[-47.4797,-5.6217],[-47.4769,-5.6373],[-47.4423,-5.8308],[-47.4379,-5.8571],[-47.4394,-6.0118],[-47.4302,-6.0684],[-47.3807,-6.25],[-47.4303,-6.4226],[-47.4252,-6.4974],[-47.4651,-6.5815],[-47.4962,-6.6972],[-47.5205,-6.8405],[-47.5471,-7.0167],[-47.6604,-7.1514],[-47.7451,-7.1625],[-47.684,-7.2454],[-47.6507,-7.3023],[-47.5429,-7.2654],[-47.4782,-7.3368],[-47.5916,-7.4401],[-47.5028,-7.4391],[-47.4298,-7.5472],[-47.2467,-7.8086],[-47.1902,-7.8421],[-47.0148,-8.0588],[-46.8066,-7.951],[-46.6086,-7.893],[-46.5012,-7.9732],[-46.4657,-8.0727],[-46.544,-8.3174],[-46.7267,-8.3831],[-46.7824,-8.3681],[-46.8461,-8.534],[-46.9032,-8.5932],[-46.9181,-8.857],[-47.0383,-9.0006],[-47.0687,-9.0639],[-46.9403,-9.0637],[-46.9263,-9.1349],[-46.8196,-9.2116],[-46.8471,-9.2924],[-46.7543,-9.4138],[-46.6328,-9.4116],[-46.5392,-9.5601],[-46.5924,-9.5872],[-46.6444,-9.7403],[-46.5129,-9.7975],[-46.4751,-9.9045],[-46.4452,-10.0774],[-46.3248,-10.1832],[-46.1949,-10.183],[-46.0232,-10.1834],[-46.0124,-10.2507],[-45.9109,-10.3711],[-45.8967,-10.2643],[-45.744,-10.24],[-45.7235,-10.1554],[-45.6993,-10.2586],[-45.7982,-10.3232],[-45.8202,-10.4561],[-46.1276,-10.6206],[-46.2062,-10.8005],[-46.2605,-10.812],[-46.2673,-10.9348],[-46.3416,-10.939],[-46.553,-11.2654],[-46.5599,-11.3716],[-46.4393,-11.521],[-46.3504,-11.5062],[-46.1128,-11.606],[-46.0809,-11.624],[-46.1445,-11.6243],[-46.3617,-11.631],[-46.3078,-11.6866],[-46.3786,-11.7486],[-46.3376,-11.8131],[-46.381,-11.8631],[-46.3128,-11.9411],[-46.3889,-12.0488],[-46.3712,-12.0997],[-46.3716,-12.3498],[-46.29,-12.377],[-46.2666,-12.5067],[-46.1982,-12.504],[-46.1983,-12.5041],[-46.2967,-12.5757],[-46.2824,-12.7639],[-46.328,-12.9547],[-46.113,-12.918],[-46.2987,-13.0638],[-46.3277,-13.2529],[-46.2925,-13.3169],[-46.1032,-13.2575],[-46.0683,-13.2954],[-46.2485,-13.436],[-46.209,-13.4656],[-46.2475,-13.5787],[-46.1627,-13.6036],[-46.2357,-13.7081],[-46.2642,-13.9474],[-46.2121,-14.0101],[-46.227,-14.049],[-46.1841,-14.1569],[-46.0601,-14.2319],[-45.9072,-14.3552],[-46.0001,-14.4466],[-45.9889,-14.6558],[-46.021,-14.6699],[-46.0251,-14.6781],[-46.0394,-14.8753],[-46.0376,-14.8747],[-45.9661,-14.9656],[-46.0771,-15.2647],[-45.9717,-15.1539],[-45.7398,-15.1204],[-45.6169,-15.0141],[-45.3057,-14.8337],[-45.2056,-14.7447],[-45.0958,-14.753],[-45.0403,-14.6805],[-44.877,-14.5992],[-44.8332,-14.4998],[-44.7414,-14.4671],[-44.5572,-14.337],[-44.4118,-14.2816],[-44.296,-14.2532],[-44.0457,-14.2838],[-43.9696,-14.274],[-43.7832,-14.3392],[-43.8184,-14.3877],[-43.8812,-14.5624],[-43.8835,-14.6525],[-43.7122,-14.7153],[-43.531,-14.8154],[-43.5308,-14.8155],[-43.487,-14.7903],[-43.3112,-14.6697],[-43.175,-14.6511],[-42.9389,-14.708],[-42.8721,-14.7647],[-42.6187,-14.9397],[-42.5157,-14.9829],[-42.479,-15.0142],[-42.2776,-15.1137],[-42.2656,-15.125],[-42.1733,-15.086],[-42.0485,-15.1707],[-41.9534,-15.1757],[-41.8103,-15.1014],[-41.8023,-15.1003],[-41.7599,-15.138],[-41.4561,-15.4103],[-41.3643,-15.493],[-41.3619,-15.495],[-41.3422,-15.6386],[-41.3302,-15.7433],[-41.1425,-15.772],[-40.8168,-15.6476],[-40.7677,-15.7141],[-40.7006,-15.6673],[-40.6449,-15.7289],[-40.5198,-15.7976],[-40.45,-15.7616],[-40.425,-15.8057],[-40.2357,-15.8035],[-40.1275,-15.9071],[-40.0044,-16.0018],[-39.9148,-16],[-39.8568,-16.1138],[-39.9178,-16.2843],[-40.0172,-16.3478],[-40.1102,-16.4493],[-40.1579,-16.5795],[-40.2755,-16.5734],[-40.3132,-16.6786],[-40.307,-16.6968],[-40.2816,-16.9012],[-40.4013,-16.8902],[-40.4077,-16.8987],[-40.4336,-16.8874],[-40.4923,-16.8874],[-40.5787,-17.1496],[-40.5478,-17.2837],[-40.6047,-17.3562],[-40.5195,-17.4474],[-40.483,-17.4885],[-40.4145,-17.6101],[-40.3441,-17.6156],[-40.2402,-17.7349],[-40.2237,-17.7343],[-40.2119,-17.8949],[-40.2224,-17.9804],[-40.2204,-17.9816],[-39.9118,-18.179],[-39.6678,-18.3372],[-39.6354,-18.2323],[-39.4912,-17.9979],[-39.2575,-17.828],[-39.1373,-17.685],[-39.1917,-17.446],[-39.2121,-17.1613],[-39.1175,-16.8925],[-39.1416,-16.7615],[-39.1038,-16.6981],[-39.0621,-16.4358],[-39.0088,-16.3457],[-39.0111,-16.2458],[-38.9484,-16.0924],[-38.8528,-15.8494],[-38.8936,-15.7667],[-38.9349,-15.6654],[-38.9732,-15.3855],[-38.9963,-15.0852],[-39.0274,-14.783],[-39.0622,-14.747],[-39.0343,-14.5153],[-39.0177,-14.4185],[-38.9889,-14.2174],[-38.9288,-13.9068],[-38.9517,-13.8724],[-38.9678,-13.8488],[-38.9722,-13.8424],[-38.9884,-13.7168],[-38.9685,-13.6721],[-38.8911,-13.6405],[-38.9329,-13.546],[-38.8924,-13.4606],[-38.9508,-13.3899],[-38.9188,-13.2136],[-38.7975,-13.1375],[-38.6433,-13.0153],[-38.5856,-13.0127],[-38.4687,-13.0149],[-38.3043,-12.9109],[-38.2802,-12.8807],[-38.0302,-12.5972],[-37.8933,-12.4082],[-37.7699,-12.2387],[-37.6857,-12.099],[-37.5128,-11.7407],[-37.3411,-11.4423],[-37.2602,-11.2896],[-37.1545,-11.1616],[-37.0346,-10.9573],[-36.8527,-10.7442],[-36.6729,-10.6308],[-36.4862,-10.5364],[-36.3959,-10.4969],[-36.3014,-10.3446],[-36.2596,-10.2641],[-36.0315,-10.0508],[-35.9627,-9.9407],[-35.9047,-9.8559],[-35.8553,-9.7883],[-35.7898,-9.7112],[-35.7237,-9.6847],[-35.5585,-9.4875],[-35.5246,-9.4426],[-35.4725,-9.358],[-35.3868,-9.2863],[-35.3391,-9.2307],[-35.2951,-9.1555],[-35.2413,-9.0647],[-35.1527,-8.9139],[-35.1302,-8.8623],[-35.1028,-8.7849],[-35.0878,-8.6908],[-35.0482,-8.6094],[-34.9609,-8.3667],[-34.9286,-8.2253],[-34.9088,-8.1551],[-34.8605,-8.0445],[-34.828,-7.9591],[-34.8411,-7.8451],[-34.8451,-7.8164],[-34.8482,-7.6878],[-34.8339,-7.5486],[-34.8027,-7.3879],[-34.8058,-7.2445],[-34.8424,-7.056],[-34.859,-7.0297],[-34.8691,-6.9781],[-34.8987,-6.8659],[-34.9248,-6.7676],[-34.9315,-6.7211],[-34.965,-6.6029],[-34.9685,-6.4872],[-35.0319,-6.3108],[-35.0334,-6.2864],[-35.0939,-6.1834],[-35.0978,-6.1398],[-35.121,-5.9817],[-35.1541,-5.8978],[-35.2036,-5.7432],[-35.2271,-5.6121],[-35.2558,-5.5169],[-35.326,-5.3813],[-35.3824,-5.27],[-35.4895,-5.157],[-35.6171,-5.114],[-35.7909,-5.0774],[-35.9083,-5.0595],[-36.0375,-5.0515],[-36.0995,-5.0772],[-36.3083,-5.1021],[-36.4068,-5.0807],[-36.7156,-5.0809],[-36.8557,-4.9723],[-36.96,-4.9186],[-37.1386,-4.9479],[-37.221,-4.8814],[-37.2527,-4.8314],[-37.3259,-4.7003],[-37.5404,-4.6447],[-37.6031,-4.6173],[-37.7695,-4.4264],[-37.8451,-4.3817],[-38.1477,-4.1021],[-38.2233,-4.0072],[-38.4018,-3.8238],[-38.4638,-3.7072],[-38.5876,-3.6964],[-38.6524,-3.6822],[-38.8066,-3.5485],[-38.9321,-3.4654],[-39.0646,-3.4067],[-39.1648,-3.3262],[-39.257,-3.2195],[-39.3793,-3.1833],[-39.5506,-3.0792],[-39.721,-2.9969],[-39.9424,-2.8664],[-40.1853,-2.8117],[-40.3719,-2.8124],[-40.455,-2.8034],[-40.5901,-2.8464],[-40.7604,-2.8488],[-41.1017,-2.9009],[-41.2712,-2.8872],[-41.3227,-2.9213],[-41.4362,-2.906],[-41.6496,-2.8644],[-41.7818,-2.7583],[-41.826,-2.7573],[-41.8072,-2.73],[-42.043,-2.7296],[-42.0713,-2.687],[-42.2226,-2.6922],[-42.2636,-2.7579],[-42.4876,-2.7033],[-42.6415,-2.6253],[-43.0148,-2.4567],[-43.2374,-2.3587],[-43.3116,-2.3387],[-43.3781,-2.3422],[-43.4833,-2.3853],[-43.4617,-2.4864],[-43.5374,-2.4219],[-43.5786,-2.5061],[-43.6968,-2.5149],[-43.7412,-2.4351],[-43.6446,-2.4013],[-43.5943,-2.2827],[-43.7204,-2.2914],[-43.7619,-2.4187],[-43.8381,-2.4167],[-43.8502,-2.51],[-43.9312,-2.5616],[-44.0788,-2.7438],[-44.1484,-2.7681],[-44.2658,-2.7604],[-44.1757,-2.7021],[-44.0928,-2.5747],[-44.0362,-2.5567],[-44.0523,-2.4661],[-44.0318,-2.4063],[-44.1738,-2.458],[-44.1837,-2.461],[-44.2208,-2.4739],[-44.3046,-2.4875],[-44.41,-2.7992],[-44.4248,-2.9439],[-44.4955,-3.026],[-44.5481,-3.0451],[-44.5916,-3.0409],[-44.6625,-3.0129],[-44.652,-2.893],[-44.6501,-2.805],[-44.5553,-2.5965],[-44.358,-2.3405],[-44.4626,-2.145],[-44.6444,-2.2963],[-44.6777,-2.2805],[-44.4973,-2.0253],[-44.5777,-2.0292],[-44.4821,-1.9883],[-44.5517,-1.8885],[-44.5341,-1.8222],[-44.6153,-1.7633],[-44.7594,-1.783],[-44.7016,-1.725],[-44.7998,-1.7043],[-44.6363,-1.6166],[-44.7234,-1.5567],[-44.8537,-1.6175],[-44.8899,-1.6036],[-44.8604,-1.4113],[-44.9531,-1.56],[-45.0082,-1.4856],[-45.196,-1.4881],[-45.2682,-1.5986],[-45.3238,-1.597],[-45.3086,-1.3329],[-45.4755,-1.4798],[-45.5144,-1.3081],[-45.6108,-1.2746],[-45.6899,-1.2736],[-45.7813,-1.1926],[-45.7891,-1.1873],[-45.7965,-1.1826],[-45.8467,-1.213],[-45.8539,-1.0528],[-45.954,-1.2022],[-45.9946,-1.053],[-46.1041,-1.202],[-46.1616,-1.2819],[-46.1037,-1.3373],[-46.1761,-1.4774],[-46.1613,-1.6228],[-46.2112,-1.7272],[-46.3152,-1.7416],[-46.31,-1.8063],[-46.211,-1.8311],[-46.2234,-1.9149],[-46.2632,-2.0493],[-46.2833,-2.1544],[-46.4163,-2.2738],[-46.4394,-2.4132],[-46.4358,-2.4709],[-46.5068,-2.6169],[-46.6061,-2.6395],[-46.6696,-2.7346],[-46.5896,-2.8458],[-46.6811,-2.8936],[-46.6765,-3.0941],[-46.7689,-3.1765],[-46.8122,-3.3021],[-46.9443,-3.3772],[-46.9485,-3.4768],[-47.0383,-3.5643],[-47.0306,-3.6046],[-47.0887,-3.8616],[-47.3472,-4.1087],[-47.3718,-4.2456],[-47.442,-4.2874],[-47.6152,-4.56],[-47.68,-4.6086],[-47.8162,-4.6147],[-48.0254,-4.7783],[-48.0584,-4.8042],[-48.1946,-4.911],[-48.2124,-4.9249],[-48.4519,-5.1122],[-48.7552,-5.3492]]],[[[-45.0288,-1.318],[-44.9891,-1.4016],[-44.8669,-1.3287],[-44.9662,-1.2711],[-45.0288,-1.318]]],[[[-44.6381,-2.981],[-44.5609,-3.0225],[-44.479,-2.9579],[-44.4815,-2.7266],[-44.5862,-2.8147],[-44.6381,-2.981]]]]}},{"type":"Feature","properties":{"codigo":"RC12","regiao":"Norte"},"geometry":{"type":"MultiPolygon","coordinates":[[[[-73.9833,-7.5662],[-73.8217,-7.7175],[-73.6935,-7.7709],[-73.704,-7.8726],[-73.7672,-7.8609],[-73.7288,-7.9691],[-73.6322,-8.059],[-73.537,-8.3455],[-73.3321,-8.4754],[-73.344,-8.6021],[-73.128,-8.7712],[-73.0562,-8.9069],[-72.9948,-8.9198],[-72.9402,-9.069],[-73.1008,-9.3042],[-73.2119,-9.4117],[-72.7197,-9.4117],[-72.518,-9.4916],[-72.3404,-9.5087],[-72.2529,-9.6228],[-72.2709,-9.7448],[-72.1529,-9.7968],[-72.1805,-10],[-71.3774,-10],[-71.2108,-9.9664],[-71.0777,-9.8277],[-70.9977,-9.8184],[-70.8688,-9.6646],[-70.7996,-9.6425],[-70.5698,-9.4322],[-70.5056,-9.4222],[-70.598,-9.6065],[-70.5247,-9.7153],[-70.6206,-9.8323],[-70.6206,-10.0793],[-70.6205,-10.425],[-70.6209,-10.7055],[-70.621,-10.9996],[-70.5301,-10.9348],[-70.4247,-11.0378],[-70.3022,-11.0688],[-70.161,-11.0426],[-69.9339,-10.9212],[-69.7357,-10.9745],[-69.4235,-10.9266],[-69.2326,-10.94],[-68.9121,-11.0217],[-68.7486,-11.0187],[-68.7161,-11.1456],[-68.543,-11.1114],[-68.3882,-11.0406],[-68.2394,-10.9578],[-68.0022,-10.6484],[-67.8641,-10.6408],[-67.7046,-10.7004],[-67.5673,-10.5095],[-67.3108,-10.3774],[-67.316,-10.3187],[-67.1778,-10.3394],[-67.0023,-10.2297],[-66.8986,-10.1114],[-66.6269,-9.898],[-66.2133,-9.8343],[-66.152,-9.7856],[-65.9821,-9.8088],[-65.8859,-9.7525],[-65.7042,-9.7638],[-65.5541,-9.832],[-65.4434,-9.6693],[-65.3569,-9.7202],[-65.2887,-9.8657],[-65.333,-9.9443],[-65.2888,-10.2199],[-65.3918,-10.3744],[-65.3815,-10.4291],[-65.4297,-10.4809],[-65.4051,-10.6406],[-65.3436,-10.6996],[-65.3625,-10.8016],[-65.2756,-10.8712],[-65.2509,-10.9845],[-65.3635,-11.1473],[-65.3049,-11.5016],[-65.2119,-11.5305],[-65.2048,-11.7495],[-65.0905,-11.7078],[-65.0289,-11.9976],[-64.8396,-12.0107],[-64.6984,-12.1036],[-64.7129,-12.1736],[-64.5946,-12.2157],[-64.5128,-12.2229],[-64.5131,-12.3438],[-64.4062,-12.447],[-64.2345,-12.4555],[-63.9634,-12.5297],[-63.8873,-12.4473],[-63.6848,-12.4531],[-63.4372,-12.5644],[-63.2994,-12.6818],[-63.0906,-12.636],[-63.0071,-12.8396],[-62.8922,-12.8588],[-62.7944,-12.9952],[-62.6607,-12.9695],[-62.6126,-13.0413],[-62.4177,-13.1189],[-62.2785,-13.1555],[-62.2148,-13.1113],[-62.1152,-13.1637],[-62.1157,-13.2585],[-61.8874,-13.4408],[-61.8171,-13.5274],[-61.5789,-13.5099],[-61.4699,-13.5553],[-61.2483,-13.4963],[-61.1943,-13.5364],[-61.009,-13.5064],[-60.919,-13.5483],[-60.8798,-13.6175],[-60.7093,-13.693],[-60.6322,-13.5717],[-60.3879,-13.4547],[-60.3716,-13.3186],[-60.3332,-13.258],[-60.2676,-13.0773],[-60.1833,-12.9676],[-60.1172,-12.9596],[-60.0289,-12.6186],[-59.9477,-12.5993],[-59.7794,-12.3415],[-59.8868,-12.2451],[-59.8998,-12.1172],[-59.9794,-12.0295],[-59.9842,-11.9148],[-60.0989,-11.8456],[-60.1109,-11.5825],[-59.9344,-11.4237],[-59.9172,-11.3384],[-59.9797,-11.2395],[-59.9768,-11.1224],[-60.3916,-11.0938],[-60.4601,-10.9899],[-61.0006,-10.9922],[-61.429,-10.9875],[-61.5503,-10.9861],[-61.4766,-10.7666],[-61.4618,-10.4199],[-61.5533,-10.307],[-61.5849,-10.0616],[-61.5402,-10.0002],[-61.5079,-9.8611],[-61.5746,-9.7178],[-61.477,-9.6299],[-61.5817,-9.4591],[-61.6162,-9.3268],[-61.6283,-9.2571],[-61.5293,-9.2487],[-61.5558,-9.0924],[-61.4692,-8.9201],[-61.5831,-8.7987],[-60.4202,-8.7966],[-59.1274,-8.8033],[-58.4419,-8.7987],[-58.3284,-8.7122],[-58.4373,-8.7034],[-58.3895,-8.5948],[-58.4178,-8.4895],[-58.3149,-8.3231],[-58.2864,-8.0885],[-58.3782,-7.8274],[-58.2941,-7.7715],[-58.2022,-7.6209],[-58.2131,-7.4585],[-58.1371,-7.3561],[-58.0614,-7.3952],[-57.8967,-7.6779],[-57.8319,-7.9615],[-57.6417,-8.2199],[-57.6866,-8.407],[-57.6334,-8.5268],[-57.5929,-8.7565],[-57.4175,-8.7926],[-57.4162,-8.859],[-57.2038,-8.9208],[-57.0392,-9.0983],[-57.0598,-9.1824],[-56.9955,-9.2338],[-56.8201,-9.2463],[-56.7543,-9.4064],[-56.6719,-9.3674],[-56.2723,-9.4008],[-56.1565,-9.4104],[-55.8672,-9.4343],[-54.9956,-9.5053],[-54.6135,-9.5358],[-54.1068,-9.5719],[-53.5891,-9.611],[-53.1334,-9.6452],[-52.6193,-9.6823],[-52.2567,-9.7077],[-51.3043,-9.7729],[-50.846,-9.8006],[-50.2248,-9.8412],[-50.3026,-10.0354],[-50.3983,-10.1555],[-50.4181,-10.3546],[-50.4737,-10.4049],[-50.5414,-10.6093],[-50.6033,-10.6598],[-50.6035,-10.6609],[-50.5706,-10.7525],[-50.6326,-10.9319],[-50.6095,-11.0674],[-50.6999,-11.3131],[-50.7389,-11.5445],[-50.6701,-11.5816],[-50.7173,-11.7274],[-50.6393,-11.8846],[-50.6822,-11.9909],[-50.6814,-12.2169],[-50.6437,-12.223],[-50.6236,-12.4553],[-50.6839,-12.6481],[-50.6227,-12.8197],[-50.511,-12.8609],[-50.4342,-12.6494],[-50.3055,-12.4924],[-50.1418,-12.3954],[-50.2152,-12.482],[-50.1934,-12.5638],[-50.2448,-12.5975],[-50.3108,-12.7916],[-50.1852,-12.8936],[-49.9088,-12.9751],[-49.3683,-13.2723],[-49.3556,-13.1561],[-49.2377,-12.8838],[-49.1177,-12.7901],[-48.9762,-12.9579],[-48.8798,-12.8171],[-48.8703,-12.8033],[-48.6447,-13.011],[-48.5759,-13.1242],[-48.5801,-13.3133],[-48.5161,-13.1391],[-48.4589,-13.2804],[-48.1437,-13.1525],[-48.1699,-13.3003],[-48.0745,-13.239],[-47.9668,-13.315],[-47.7982,-13.329],[-47.6797,-13.4682],[-47.6223,-13.3687],[-47.6651,-13.2184],[-47.5687,-13.1169],[-47.3929,-13.2624],[-46.8548,-13.0676],[-46.7506,-12.9692],[-46.6354,-12.9699],[-46.4546,-12.9712],[-46.4459,-12.9358],[-46.418,-12.8224],[-46.3644,-12.9907],[-46.113,-12.918],[-46.328,-12.9547],[-46.2824,-12.7639],[-46.2967,-12.5757],[-46.1983,-12.5041],[-46.1982,-12.504],[-46.2666,-12.5067],[-46.29,-12.377],[-46.3716,-12.3498],[-46.3712,-12.0997],[-46.3889,-12.0488],[-46.3128,-11.9411],[-46.381,-11.8631],[-46.3376,-11.8131],[-46.3786,-11.7486],[-46.3078,-11.6866],[-46.3617,-11.631],[-46.1445,-11.6243],[-46.0809,-11.624],[-46.1128,-11.606],[-46.3504,-11.5062],[-46.4393,-11.521],[-46.5599,-11.3716],[-46.553,-11.2654],[-46.3416,-10.939],[-46.2673,-10.9348],[-46.2605,-10.812],[-46.2062,-10.8005],[-46.1276,-10.6206],[-45.8202,-10.4561],[-45.7982,-10.3232],[-45.6993,-10.2586],[-45.7235,-10.1554],[-45.744,-10.24],[-45.8967,-10.2643],[-45.9109,-10.3711],[-46.0124,-10.2507],[-46.0232,-10.1834],[-46.1949,-10.183],[-46.3248,-10.1832],[-46.4452,-10.0774],[-46.4751,-9.9045],[-46.5129,-9.7975],[-46.6444,-9.7403],[-46.5924,-9.5872],[-46.5392,-9.5601],[-46.6328,-9.4116],[-46.7543,-9.4138],[-46.8471,-9.2924],[-46.8196,-9.2116],[-46.9263,-9.1349],[-46.9403,-9.0637],[-47.0687,-9.0639],[-47.0383,-9.0006],[-46.9181,-8.857],[-46.9032,-8.5932],[-46.8461,-8.534],[-46.7824,-8.3681],[-46.7267,-8.3831],[-46.544,-8.3174],[-46.4657,-8.0727],[-46.5012,-7.9732],[-46.6086,-7.893],[-46.8066,-7.951],[-47.0148,-8.0588],[-47.1902,-7.8421],[-47.2467,-7.8086],[-47.4298,-7.5472],[-47.5028,-7.4391],[-47.5916,-7.4401],[-47.4782,-7.3368],[-47.5429,-7.2654],[-47.6507,-7.3023],[-47.684,-7.2454],[-47.7451,-7.1625],[-47.6604,-7.1514],[-47.5471,-7.0167],[-47.5205,-6.8405],[-47.4962,-6.6972],[-47.4651,-6.5815],[-47.4252,-6.4974],[-47.4303,-6.4226],[-47.3807,-6.25],[-47.4302,-6.0684],[-47.4394,-6.0118],[-47.4379,-5.8571],[-47.4423,-5.8308],[-47.4769,-5.6373],[-47.4797,-5.6217],[-47.5603,-5.4632],[-47.6804,-5.4154],[-47.8275,-5.3866],[-47.8667,-5.3053],[-47.9373,-5.2396],[-48.0147,-5.238],[-48.0691,-5.2715],[-48.1849,-5.257],[-48.225,-5.2355],[-48.3639,-5.1684],[-48.4872,-5.1939],[-48.5611,-5.2302],[-48.6061,-5.3365],[-48.7552,-5.3492],[-48.4519,-5.1122],[-48.2124,-4.9249],[-48.1946,-4.911],[-48.0584,-4.8042],[-48.0254,-4.7783],[-47.8162,-4.6147],[-47.68,-4.6086],[-47.6152,-4.56],[-47.442,-4.2874],[-47.3718,-4.2456],[-47.3472,-4.1087],[-47.0887,-3.8616],[-47.0306,-3.6046],[-47.0383,-3.5643],[-46.9485,-3.4768],[-46.9443,-3.3772],[-46.8122,-3.3021],[-46.7689,-3.1765],[-46.6765,-3.0941],[-46.6811,-2.8936],[-46.5896,-2.8458],[-46.6696,-2.7346],[-46.6061,-2.6395],[-46.5068,-2.6169],[-46.4358,-2.4709],[-46.4394,-2.4132],[-46.4163,-2.2738],[-46.2833,-2.1544],[-46.2632,-2.0493],[-46.2234,-1.9149],[-46.211,-1.8311],[-46.31,-1.8063],[-46.3152,-1.7416],[-46.2112,-1.7272],[-46.1613,-1.6228],[-46.1761,-1.4774],[-46.1037,-1.3373],[-46.1616,-1.2819],[-46.1041,-1.202],[-46.0634,-1.1062],[-46.0946,-1.0206],[-46.1935,-1.0796],[-46.2076,-0.8856],[-46.3374,-1.0215],[-46.4691,-1.0253],[-46.4958,-0.8722],[-46.5313,-0.953],[-46.6364,-0.9691],[-46.6293,-0.8008],[-46.796,-0.8705],[-46.836,-0.7467],[-46.9426,-0.8593],[-46.9907,-0.7119],[-47.0637,-0.7946],[-47.092,-0.6741],[-47.1605,-0.7623],[-47.1747,-0.6729],[-47.2619,-0.6478],[-47.3863,-0.6047],[-47.426,-0.6573],[-47.4744,-0.5923],[-47.4816,-0.7391],[-47.5898,-0.5761],[-47.6081,-0.6978],[-47.6315,-0.7063],[-47.6327,-0.6021],[-47.7562,-0.6063],[-47.9171,-0.5664],[-47.977,-0.6862],[-48.0514,-0.6595],[-48.1416,-0.7542],[-48.1716,-0.8164],[-48.2938,-0.9197],[-48.4096,-0.9058],[-48.4747,-0.8739],[-48.5061,-0.7509],[-48.4411,-0.4122],[-48.3746,-0.3031],[-48.4288,-0.2272],[-48.7437,-0.2499],[-48.9179,-0.2296],[-49.1646,-0.1303],[-49.3826,-0.1915],[-49.4386,-0.1265],[-49.3589,-0.0259],[-49.397,0.0622],[-49.6322,0.0749],[-49.6996,0.1505],[-49.6333,0.2414],[-49.4886,0.3342],[-49.5732,0.4166],[-49.8892,0.3225],[-50.1678,0.3403],[-50.1727,0.3976],[-50.0364,0.5342],[-50.0726,0.6358],[-50.2261,0.6962],[-49.9884,0.8748],[-49.989,0.9395],[-49.8898,1.0136],[-49.9016,1.2403],[-49.8817,1.5001],[-49.9206,1.6879],[-50.1587,1.8112],[-50.4237,1.8045],[-50.684,2.1437],[-50.7942,2.4985],[-50.827,2.5128],[-50.8873,2.7462],[-50.9542,2.8372],[-51.0328,3.2137],[-51.1093,3.4506],[-51.0818,3.5595],[-51.0807,3.8848],[-51.1508,3.9138],[-51.2164,4.15],[-51.2834,4.2503],[-51.4859,4.4372],[-51.6376,4.5088],[-51.6768,4.3327],[-51.6231,4.2256],[-51.6561,4.0539],[-51.7823,3.9641],[-51.7986,3.887],[-51.9726,3.7055],[-51.9888,3.6269],[-52.2336,3.2407],[-52.3529,3.1265],[-52.3269,3.0805],[-52.4778,2.7818],[-52.5521,2.52],[-52.6606,2.374],[-52.8422,2.2912],[-52.9043,2.1885],[-53.0845,2.2127],[-53.2792,2.186],[-53.2295,2.2624],[-53.3233,2.3471],[-53.4731,2.2567],[-53.7488,2.3128],[-53.7672,2.3789],[-53.9424,2.2424],[-54.1891,2.1788],[-54.4366,2.2099],[-54.6017,2.3372],[-54.6921,2.3614],[-54.744,2.4715],[-54.8723,2.4337],[-54.9543,2.5837],[-55.1031,2.5257],[-55.1729,2.5594],[-55.3203,2.5155],[-55.3854,2.4185],[-55.4998,2.4433],[-55.7077,2.4032],[-55.718,2.4021],[-55.9347,2.5335],[-56.0507,2.3351],[-56.139,2.2658],[-56.043,2.2279],[-55.9669,2.0885],[-55.9039,1.8881],[-55.999,1.8314],[-56.1527,1.8908],[-56.2415,1.8797],[-56.4371,1.9518],[-56.5798,1.906],[-56.721,1.9259],[-56.7881,1.8544],[-56.9198,1.9304],[-57.0008,1.9074],[-57.0868,2.0265],[-57.253,1.9485],[-57.3044,1.9975],[-57.4335,1.906],[-57.451,1.8064],[-57.5772,1.6904],[-57.7924,1.7267],[-57.7977,1.6873],[-57.9902,1.6585],[-58.0043,1.5031],[-58.1295,1.499],[-58.1607,1.5602],[-58.3172,1.5685],[-58.3719,1.4816],[-58.5088,1.463],[-58.458,1.3715],[-58.4963,1.268],[-58.7105,1.2899],[-58.7252,1.2188],[-58.8252,1.1713],[-58.8955,1.2277],[-58.9236,1.318],[-59.0486,1.3227],[-59.2533,1.3882],[-59.3299,1.5138],[-59.4127,1.5516],[-59.5336,1.7163],[-59.6902,1.7563],[-59.6624,1.8619],[-59.7461,1.8519],[-59.7344,1.9996],[-59.7404,2.2929],[-59.8444,2.321],[-59.9884,2.6798],[-59.9844,2.9288],[-59.9083,3.2119],[-59.8064,3.3539],[-59.8052,3.5098],[-59.8727,3.5638],[-59.6626,3.715],[-59.5265,3.9246],[-59.709,4.1619],[-59.7319,4.2865],[-59.6762,4.3469],[-59.7359,4.4237],[-59.972,4.5093],[-60.1615,4.5178],[-60.0259,4.7057],[-59.972,5.0749],[-60.0958,5.1407],[-60.1352,5.2482],[-60.2125,5.2718],[-60.3283,5.2055],[-60.5772,5.198],[-60.6972,5.2288],[-60.5841,4.9557],[-60.6524,4.8846],[-60.7509,4.7537],[-60.9476,4.6555],[-60.9979,4.5156],[-61.1493,4.4832],[-61.2698,4.5397],[-61.3516,4.4188],[-61.4483,4.4391],[-61.5083,4.3218],[-61.5619,4.251],[-61.7377,4.2568],[-61.8189,4.1677],[-61.9933,4.1749],[-62.1436,4.0752],[-62.3897,4.178],[-62.5527,4.1088],[-62.533,4.0474],[-62.7361,4.0399],[-62.7889,3.8932],[-62.7291,3.8046],[-62.7486,3.6727],[-62.8102,3.7327],[-62.9861,3.6099],[-63.0814,3.6932],[-63.0608,3.7518],[-63.2044,3.8116],[-63.205,3.9513],[-63.4522,3.9555],[-63.4119,3.9118],[-63.5111,3.8471],[-63.6769,4.0191],[-63.7141,3.9038],[-63.7569,3.9405],[-63.9261,3.926],[-63.9658,3.8682],[-64.1089,4.0855],[-64.1719,4.1288],[-64.4316,4.1346],[-64.5605,4.1016],[-64.7805,4.2866],[-64.8105,4.1746],[-64.4786,3.7832],[-64.2891,3.6996],[-64.1963,3.5789],[-64.1844,3.4893],[-64.1179,3.3374],[-64.2187,3.0906],[-64.1446,3.0257],[-64.0147,2.8122],[-63.9862,2.6487],[-64.0617,2.5044],[-63.9601,2.4731],[-63.8458,2.4965],[-63.7619,2.4439],[-63.6036,2.4572],[-63.4657,2.4017],[-63.4147,2.4542],[-63.3554,2.3823],[-63.3721,2.2119],[-63.3977,2.1469],[-63.5619,2.1324],[-63.8297,1.9682],[-63.9755,1.9913],[-64.0619,1.9307],[-64.0652,1.676],[-64.3261,1.436],[-64.4,1.3949],[-64.3975,1.5268],[-64.5533,1.4168],[-64.5908,1.3374],[-64.7639,1.2308],[-64.823,1.2785],[-64.9516,1.2315],[-65.0222,1.1149],[-65.1551,1.125],[-65.165,0.9505],[-65.3291,0.9316],[-65.443,0.6899],[-65.5405,0.6488],[-65.5914,0.7216],[-65.5003,0.8424],[-65.5856,1.0089],[-65.7394,0.9996],[-65.9254,0.8913],[-65.9644,0.8095],[-66.1511,0.7445],[-66.213,0.7806],[-66.3165,0.7361],[-66.3185,0.755],[-66.8569,1.2302],[-67.0882,1.1669],[-67.0723,1.4426],[-67.0974,1.7326],[-67.1571,1.8488],[-67.2781,1.8757],[-67.3893,2.244],[-67.5219,2.1703],[-67.6198,2.0237],[-67.7794,2.0311],[-67.9413,1.8307],[-68.0875,1.9013],[-68.1407,1.9848],[-68.2433,1.9267],[-68.2669,1.8273],[-68.1568,1.7316],[-69.3913,1.7296],[-69.5344,1.777],[-69.6538,1.7181],[-69.8458,1.7077],[-69.8466,1.0779],[-69.7026,1.1183],[-69.7035,1.075],[-69.3219,1.0884],[-69.2457,1.0465],[-69.1401,0.8838],[-69.1876,0.7469],[-69.1157,0.644],[-69.3498,0.6141],[-69.481,0.735],[-69.6281,0.6275],[-69.687,0.6632],[-69.8235,0.5911],[-70.0465,0.5621],[-70.0464,0.0683],[-70.0574,-0.1868],[-69.9232,-0.3315],[-69.8449,-0.3458],[-69.6111,-0.5135],[-69.5643,-0.6398],[-69.6264,-0.7497],[-69.5274,-0.922],[-69.4217,-1.0004],[-69.3984,-1.1444],[-69.4297,-1.3873],[-69.6134,-2.4402],[-69.8376,-3.6866],[-69.9507,-4.2693],[-70.0454,-4.3738],[-70.1328,-4.282],[-70.2004,-4.356],[-70.3079,-4.2468],[-70.2932,-4.1599],[-70.5221,-4.1373],[-70.6163,-4.1934],[-70.759,-4.1587],[-70.865,-4.2533],[-70.938,-4.3832],[-71.2665,-4.3845],[-71.2617,-4.4247],[-71.5023,-4.4386],[-71.6169,-4.5289],[-71.7788,-4.4847],[-71.9151,-4.5307],[-71.9476,-4.609],[-72.2421,-4.7804],[-72.3722,-4.8077],[-72.4146,-4.9009],[-72.5971,-4.9827],[-72.8871,-5.1616],[-72.8701,-5.2994],[-72.9638,-5.4981],[-72.9618,-5.6546],[-73.151,-5.8634],[-73.2502,-6.1449],[-73.1089,-6.41],[-73.213,-6.5778],[-73.3545,-6.5949],[-73.6428,-6.7621],[-73.7546,-6.9419],[-73.7268,-7.0225],[-73.8016,-7.1118],[-73.6989,-7.2957],[-73.8765,-7.3823],[-73.9671,-7.3598],[-73.9193,-7.4653],[-73.9833,-7.5662]]],[[[-50.5212,2.0054],[-50.4549,1.8885],[-50.3174,1.9475],[-50.3608,2.0574],[-50.4501,2.1092],[-50.5212,2.0054]]],[[[-50.5088,2.1852],[-50.5077,2.0999],[-50.4226,2.1185],[-50.5088,2.1852]]]]}}]}